OBJECTID,NAME_OF_SE,ALT_NAME,STREETNAME,WARD_S,PLANNING_U,LATITUDE,LONGITUDE,REGION,WATER_SUPP,SANITATION,REFUSE,ELECTRIC_2,UNIREFCODE,EST_HHC,NUSP_CAT,SHAPE_Length,SHAPE_Area
1,Amatikwe, ,MR93 North,56/108,Amatikwe,"-29,6847594568261","30,9331993743659",Northern,Standpipes,Pit Privies,C&SW contractor,Yes,I0005,3250,B1,0.220758814885123,0.000223082616564589
2,Congo Phase 2,Congo Phase 2,MR93 /MR93 North,55/57,Inanda Congo,"-29,6930565996813","30,9524428875002",Northern,Standpipes,Ablution Facility & Pit Privies,C&SW contractor,Yes,I0037,758,B1,0.0438277722781698,2.69850783732054e-05
3,Africa Inanda,Africa,Curnick Ndlovu Highway,55,Ohlange-Africa / Stop 8,"-29,700492743755","30,9486579023242",Northern,Ablution Facility Taps & Standpipes,Ablution Facility,C&SW contractor,Yes,I0002,627,B1,0.0221162836325124,2.63939283238213e-05
4,Namibia, ,Curnick Ndlovu Highway / Matshana Road,108/44,Inanda Namibia,"-29,703771886581","30,9335017254606",Northern,Ablution Facility Taps & Standpipes,Ablution Facility,C&SW contractor,Yes,I0145,1508,B1,0.0380441597426509,6.32246004397624e-05
5,Mshayazafe, ,Sidudla Road,55,Mshayazafe / Ohlange - Africa,"-29,7066784039778","30,9469610275001",Northern,Standpipes,Pit Privies,C&SW contractor,Yes,I0140,349,B1,0.0189374411761917,1.29936995512438e-05
6,Ntuzuma - E1, ,Ithendele Drive,44/43,Emachobeni / Ntuzuma - E / Inanda Glebe,"-29,7226600304074","30,9207622047174",Northern,Standpipes,Pit Privies,C&SW contractor,Yes,I0151,261,B1,0.0226833960216455,1.70736887702641e-05
7,Ntuzuma - E8, ,121829 Street,44/43,Emachobeni / Ntuzuma - E,"-29,7275669099481","30,9221578087933",Northern,Standpipes,Pit Privies,C&SW contractor,Yes,I0152,402,B1,0.0249123369601404,2.28563920131418e-05
8,Smithfield, ,Smithfield Road,34,Sea Cow Lake,"-29,7928102569667","31,0028647844833",Northern,Ablution Facility Taps & 1 Standpipe,Ablution Facility,C&SW contractor,Planned,I0190,235,B1,0.0101313878897409,4.70938428181606e-06
9,Johanna Road, ,Johanna Road / Boxwood Place,34,Sea Cow Lake,"-29,7974985831216","30,9946111650077",Northern,Ablution Facility Taps & 1 Standpipe,Ablution Facility,C&SW contractor,Planned,I0579,488,C,0.00764956034952972,2.49528208391828e-06
10,Triumph/ Myhill Roads (Jamaica), ,Triumph Road / Myhill Road / Maynard Road,34,Sea Cow Lake,"-29,7981610430836","31,0016123135001",Northern,Ablution Facility Taps & 1 Standpipe,Ablution Facility,C&SW contractor,Yes,I0200,922,B1,0.0188901021625384,7.26342632482255e-06
11,Gumtree Road (Kenville), ,Gumtree Road,34,Sea Cow Lake,"-29,7988205376058","31,0051515688531",Northern,Ablution Facility Taps & 1 Standpipe,Ablution Facility,C&SW contractor,Planned,I0083,416,B1,0.00986778590157905,3.4287728698276e-06
12,Mysore Road (Temple), ,Mysore Road (Temple),34,Sea Cow Lake,"-29,8006240606941","31,0013601092544",Northern,Ablution Facility Taps & 1 Standpipe,Ablution Facility,C&SW contractor,Yes,I0143,376,B2,0.0114361007801866,3.18990217003136e-06
13,Richmond Farm A, ,Dukuza Road / Ingcebo Drive,38,Ntuzuma - A / Ntuzuma - C,"-29,7466633962258","30,9357411787946",Northern,Ablution Facility Taps & Standpipes,Ablution Facility,C&SW contractor,Yes,I0172,291,B1,0.0192241620364782,8.07706929732444e-06
14,Siyasokola, ,Sea Cow Lake Road,34,Sea Cow Lake,"-29,8013870001236","30,9921383114105",Northern,Ablution Facility Taps,Ablution Facility & VIP toilets,C&SW contractor,Planned,I0585,279,B2/C,0.00743565324016358,2.19427238402239e-06
15,Ntuzuma - G, ,Umbeza Way / Mbuso Road,42,Ntuzuma - G / Soweto,"-29,7198114869858","30,9424533033161",Northern,Standpipes,Pit Privies,C&SW contractor,Yes,I0153,306,B1,0.00991808816739651,3.40968825924537e-06
16,Parkington,Thandanani,Parkington Grove / Park Station Road,34,Kenville,"-29,783257408305","31,0103712783198",Northern,Ablution Facility Taps & Standpipes,Ablution Facility,C&SW contractor,Planned,I0156,268,B1,0.00854764207097989,1.81775188887888e-06
17,Gwala's,Gwalas farm,Douglas Place / Saunders` Circle,34,Tongaat South,"-29,5763196627174","31,0763481663072",Northern,Ablution Facility Taps & Standpipes,Ablution Facility,C&SW contractor,Yes,I0084,308,B1,0.0479161307640381,9.41272606953216e-06
18,Zwelitsha, ,Off Douglas Circle / 80002 Street,61/58,Tongaat South,"-29,5795981845617","31,0743407061765",Northern,Ablution Facility Taps & Standpipes,Ablution Facility,C&SW contractor,Yes,I0376,241,B1,0.0199598229040009,4.98366892404215e-06
19,Kwasumubi / eMahlabathini,Cottonlands,Vincent Dickinson Road,60,Hazelmere,"-29,5883449064651","31,0543942619842",Northern,Standpipes,Pit Privies,C&SW contractor,Yes,I0110,3830,B1,0.0641557335011725,0.000137370972445818
20,Sitarami, ,82078 Street / 82076 Street,61,Buffels Kloof / Hambanathi Extension,"-29,5550004644242","31,1049051735001",Northern,Standpipes,Pit Privies,C&SW contractor,Planned,I0188,720,B1,0.0225525664686425,1.31951538947307e-05
21,Buffelsdraai, ,Buffels Drive,59,Buffelsdraai,"-29,6449762909628","30,9869848211042",Northern,Standpipes,Pit Privies,C&SW contractor,Yes,I0028,2388,B1,0.0796953210125637,0.000136086155389665
22,Blackburn Village (Boxers),Top section,Track No. 67102,35,Ottawa Agricultural,"-29,6931038077666","31,0700186439905",Northern,Ablution Facility Taps & Standpipes,Ablution Facility,C&SW contractor,Yes,I0025,439,B1,0.0111914421344401,2.75921138934026e-06
23,Kwamashu A Hostels, ,Malandela Road / Musa Road,39/46,Kwamashu A,"-29,7441093755567","30,998084581913",Northern,Ablution Facility Taps,Ablution Facility,C&SW contractor,Planned,I0107,9388,B1,0.046650968934052,9.07611528113017e-05
24,Trenance Park 4A Overspill, ,Trenance Park Drive,102,Trenance Park,"-29,6699186984517","31,0147770447251",Northern,TBC,TBC,C&SW contractor,Yes,I0199,389,B1,0.0158651809353122,5.68879036984217e-06
25,Ivy Close, ,Ivy Close / Begonia Drive / Aster Drive,60/106,Redcliffe,"-29,6459119198086","31,0151315774618",Northern,Ablution Facility Taps & 3 Standpipe,Ablution Facility,C&SW contractor,Yes,I0091,556,B1,0.0182106839992545,1.29705850538513e-05
26,Redcliff   (Canelands/Parkridge), ,Hazelmere Drive,60,Redcliffe,"-29,6233862141976","31,0320501634083",Northern,Ablution Facility Taps,Ablution Facility,C&SW contractor,Yes,I0167,5385,B1,0.0717387212548406,0.000104149240272815
27,Recliffe Cross Road, ,Cross road / Quarry Road,60,Redcliffe,"-29,6279642260829","31,0236904157239",Northern,TBC,TBC,C&SW contractor,Yes,I0166,382,B1,0.0084994096716209,2.31966670599869e-06
28,Lungelani, ,Lobelia Crescent,58,Tongaat Beach,"-29,6378750754798","31,1245406401007",Northern,Ablution Facility Taps & Standpipes,Ablution Facility,C&SW contractor,Yes,I0116,626,B1,0.0073701570601574,3.12269429725923e-06
29,White City 2 / Emzomusha, ,Gugu Ngubane Street,57,Langalibalele,"-29,6975631649748","30,9767128240335",Northern,Standpipes,Pit privies,C&SW contractor,Planned,I0369,35,B1,0.00453013896954342,6.32344406142032e-07
30,Section G & G extension, ,King Bhekuzulu Drive / Zenda Road,42/107,Ntuzuma - G & G Ext./ Newtown B & B Ext.,"-29,7190026304223","30,9541514758304",Northern,Ablution Facility Taps & Standpipes,Ablution Facility,C&SW contractor,Yes,I0181,1401,B1,0.0513382466019747,2.71626127722047e-05
31,Langalibalele (2), ,Malibongwe Drive,55,Langalibalele,"-29,7035876639145","30,9674037827501",Northern,TBC,Pit Privies,C&SW contractor,Yes,I0112,74,B1,0.00970854030515689,1.67776449249101e-06
32,Simunye Triangle ( Newtown B), ,Zimnene Road,55/107,Newtown B / Newtown B Ext.,"-29,7146537348833","30,9542779035001",Northern,Ablution Facility Taps & Standpipes,Ablution Facility,C&SW contractor,Yes,I0187,163,B1,0.016382486863956,4.02246669122666e-06
33,Amawoti-Nigeria, ,District Road No.403,59/53,Amawoti,"-29,6725641564664","30,9992157027736",Northern,Ablution Facility Taps & Standpipes,Ablution facility & Pit Privies,C&SW contractor,Yes,I0013,681,B1,0.0158393484296896,8.89771566552509e-06
34,Amawoti-Namibia, ,District Road No.403,53/56,Amawoti / Etafuleni,"-29,679111134427","30,9848659384735",Northern,Ablution Facility Taps & Standpipes,Ablution facility & Pit Privies,C&SW contractor,Yes,I0012,1550,B1,0.0443484434261796,6.53196360793196e-05
35,Amawoti-Geneva, ,District Road No.403,57,Amawoti,"-29,689103405995","30,9686105282501",Northern,Ablution Facility Taps & Standpipes,Ablution facility & Pit Privies,C&SW contractor,Yes,I0007,1227,B1,0.0398379673469481,4.48119543041812e-05
36,Ziweni, ,Magangane Magwaza Road,58,Greylands,"-29,5569224902641","31,1396445000001",Northern,Ablution Facility Taps & Standpipes,Ablution Facility & Pit Privies,C&SW contractor,Yes,I0816,60,C,0.00377360177559134,3.29374704387492e-07
37,Ndliyomlilo, ,Van Rova Road,61,Buffels Kloof & Emona,"-29,5550640363338","31,0944401704845",Northern,Standpipes,Pit Privies,C&SW contractor,Yes,I0146,657,B1,0.0182479869748862,1.35363784437338e-05
38,Valley View, ,Valley View Drive,60,Redcliff,"-29,6416473291395","31,0159434245001",Northern,Ablution Facility Taps & 3 Standpipe,Ablution Facility,C&SW contractor,Yes,I0363,385,B1,0.0158895275517614,7.06929559705633e-06
39,Riverview, ,Qhakaza Grove,58,Greylands,"-29,5580747113607","31,1445778859748",Northern,Ablution Facility Taps,Ablution Facility,C&SW contractor,Planned,I0826,89,B2,0.00270190613593637,3.88876211474308e-07
40,KwaMashimane Valley View,Valley View,Valley View Road,59,Redcliffe,"-29,6440107093317","30,9990606055002",Northern,1 Standpipe,Pit privies,C&SW contractor,Planned,I0106,637,B1,0.0199545529887169,1.27905351051623e-05
41,Kwamancinza, ,Mqhawe Drive / Egugwini Street / Mpala Avenue,45/41,KwaMashu N,"-29,7441375143155","30,9538841170001",Northern,Ablution Facility Taps & 30 Standpipe,Ablution Facility,C&SW contractor,Yes,I0105,1032,B1,0.0889389888902147,2.50217154259637e-05
42,Ntuzuma - B, ,Mpisi Rd,38,Ntuzuma - B,"-29,7568847224202","30,9502032274462",Northern,Ablution facility taps,Ablution facility,C&SW contractor,Yes,I0847,22,C,0.00389284266662313,5.09952973447098e-07
43,Redcliffe Esihlahleni, ,Jabu Ngcobo,59,Redcliffe,"-29,6463777239864","31,0005598760001",Northern,TBC,TBC,C&SW contractor,TBC,I0170,194,B2,0.00711801137936236,1.79500848878239e-06
44,Investigate Rd 82090, ,Road 82090,61,Tongaat South,"-29,5765722457388","31,0940191485001",Northern,TBC,TBC,C&SW contractor,TBC,I0868,56,B1,0.00491035397111436,8.00520612986856e-07
45,B5, ,Road 106296,38,Ntuzuma - A,"-29,7627033108793","30,9546762428353",Northern,TBC,TBC,C&SW contractor,TBC,I0020,68,B1,0.00159237385997198,1.69559474073777e-07
46,Simplace Ext, ,Sim Place / Effingham Road,34,Kenville,"-29,774203908896","31,0070335585792",Northern,Ablution Facility Taps & 1 Standpipe,Ablution Facility,C&SW contractor,Yes,I0186,643,B1,0.0160708412362809,6.59492134921623e-06
47,RoodeKrans 828 /  Hazelmere Dam, ,P239 / Track 83699,60,Hazelmere,"-29,6048370505757","31,0438279537351",Northern,Ablution Facility Taps,Ablution Facility & Pit Privies,C&SW contractor,Yes,I0419,2626,B2,0.0921215271507276,0.00017072769474384
48,Redcliffe 1 (Hilltop & KwaShabalala),Hilltop & KwaShabalala,Hilltop Drive / Kingfisher Crescent,60/59,Redcliffe,"-29,6501604687663","31,0097584656556",Northern,Ablution Facility Taps,Ablution Facility,C&SW contractor,Yes_Investigate / Prioritize,I0169,664,B1,0.0339744024475338,1.42843975477948e-05
49,Simplace, ,Sim Place / Effingham Road,34,Kenville,"-29,7726608170569","31,0059169591393",Northern,Ablution Facility Taps & 1 Standpipe,Ablution Facility,C&SW contractor,Yes,I0185,622,B1,0.00977266221691644,5.17621969891302e-06
50,Investigate B Extention, ,King bhekizulu / Savumelana cls,55,Newtown B,"-29,7112735469738","30,952306751966",Northern,TBC,TBC,C&SW contractor,TBC,I0148,57,B2,0.00965394428641602,2.03737004626185e-06
51,Redcliffe  Oakford Rd, ,Oakford Road,60,Redcillfe,"-29,6300227090647","31,011905272365",Northern,TBC,TBC,C&SW contractor,Yes,I0168,77,B1,0.00384003323314359,7.04765756298477e-07
52,Ntuzuma - C phase 2 Part 2,Hospital site,Ibhucu Drive,45,Ntuzuma - C / Ntuzuma - A,"-29,7398072928964","30,939873600636",Northern,"Ablution Facility tabs, Standpipes","Ablution facility, Pit Privies",C&SW contractor,Yes,I0150,1687,B1,0.0665600346575942,4.38083307149534e-05
53,Qungisibindi, ,Zimnene,42,Ntuzuma - G,"-29,7246925743418","30,9512605931048",Northern,Ablution Facility Taps,Ablution Facility,C&SW contractor,TBC,I0891,28,B1/B2,0.00278800993135474,4.92099209540367e-07
54,Oaklands 1, ,TODD STREET,60,Verulam West,"-29,6411499015148","31,0282915821971",Northern,Standpipes,Pit Privies,C&SW contractor,TBC,I0895,101,B1,0.0103042788616627,4.14177071566499e-06
55,Ntuzuma - A, ,Khangela str,38,Ntuzuma - A / Newlands West-open space,"-29,762834532647","30,9378692221372",Northern,Standpipes,Pit Privies,C&SW contractor,TBC,I0893,138,B1,0.0375685417795415,9.23290014352031e-06
56,Blackburn Village (Chappas),Botton (section),Track No. 67102,35,Ottawa Agricultural,"-29,6931038077666","31,0700186439905",Northern,Ablution Facility Taps & Standpipes,Ablution Facility,C&SW contractor,Yes,I0025,1028,B1,0.0184824036479868,7.76192141979785e-06
57,Langalibalele (1), ,Nombonjane Mtshali / Dr Langalibalele Drive,57/55/56,Amatikwe / Amaoti / Langalibalele,"-29,6922542411302","30,9606391181221",Northern,Ablution Facility Taps,Ablution Facility,C&SW contractor,Yes,I0111,810,B1,0.0526988004966983,4.02562562825094e-05
58,Stop 8 (Namibia), ,Curnick Ndlovu Highway,108/55,Stop 8,"-29,6997078966891","30,941288818036",Northern,Ablution Facility Taps & Standpipes,Ablution Facility,C&SW contractor,Yes,I0196,1520,B1,0.0574130488695591,5.2143174518813e-05
59,Bhambayi Phase 3, ,Curnick Ndlovu Highway,57/54,Bhambayi / Newtown C,"-29,7017118041875","30,9752549604074",Northern,Ablution Facility Taps & Standpipes,Ablution facility & Pit Privies,C&SW contractor,Yes,I0023,2491,B1,0.027779601753357,3.02090506660446e-05
60,Shembe / Ekuphakameni,Dikwe Masakhane,Curnick Ndlovu Highway / Shukuma Close,55/107,Ezimangweni / Ohlange-Mafukuzela / Newtown B Ext.,"-29,7135378469035","30,9617835875",Northern,Ablution Facility Taps & Standpipes,Ablution Facility,C&SW contractor,Yes,I0183,1265,B1,0.0542793255314269,2.55240982169448e-05
61,North Coast Road, ,Old North Coast Road,34,Avoca,"-29,7690313167228","31,0242748140001",Northern,Ablution Facility Taps,Ablution Facility,C&SW contractor,Planned,I0583,115,B2,0.00507842597919935,6.46034031952881e-07
62,Havelock Road, ,Sanderson Place,34,Greenwood Park,"-29,7852636405264","31,0153590145406",Northern,Ablution Facility Taps & 1 Standpipe,Ablution Facility,C&SW contractor,Planned,I0086,178,B1,0.00439051532090516,7.85442412944672e-07
63,"Qhakaza 1, 2 & Sokwalisa (Duffs Road)", ,Ntokozo Road / Dumisani Makhaye Drive / Zamani Place,39,KwaMashu A,"-29,746590704447","31,00180205725",Northern,Ablution Facility Taps,Ablution facillity,C&SW contractor,Planned,I0163,1492,B1,0.0330541124351634,1.30460377010735e-05
64,Malacca Road, ,Malacca Road,110,Red Hill,"-29,7671141288159","31,0305453220001",Northern,Ablution Facility Taps & 1 Standpipe,Ablution Facility,C&SW contractor,Planned,I0121,292,B1,0.006343784584387,6.88403509414567e-07
65,Amaotana, ,Street No. 20354,59/56,Amawoti / Amawotana,"-29,6605702028069","30,9967070700001",Northern,Ablution Facility Taps & 25 Standpipe,Ablution Facility,C&SW contractor,Yes,I0003,1686,B1,0.114248419410845,9.00513538406011e-05
66,Jan Roz, ,Jan Roz Crescent,62,Greylands,"-29,5451999155065","31,1446916412502",Northern,Ablution Facility Taps,Ablution Facility,C&SW contractor,Yes,I0093,450,B1,0.0120332216504459,4.8564549304138e-06
67,Amawoti-Angola, ,District Road No.787,53/56/52,Amawoti / Goqokazi,"-29,6799415854926","30,9741877358333",Northern,Ablution Facility Taps & Standpipes,Ablution facility & Pit Privies,C&SW contractor,Yes,I0006,2034,B1,0.0742053398102871,8.03787027911273e-05
68,Siyanda VN Naiker School, ,Inanda Rd / Malandela Road / Dumisani Makhaye Drive,41,Siyanda Camp,"-29,7611542310239","30,9659808192501",Northern,Ablution Facility Taps & Standpipes,Ablution Facility,C&SW contractor,Yes,I0189,862,B1,0.0402501963423733,1.04378047213987e-05
69,Pholani, ,Ocean View Road / Leo Boyd Highway,58,Tongaat Beach,"-29,6303066138455","31,1400757676778",Northern,Ablution Facility Taps & 2 Standpipe,Ablution Facility & Pit Privies,C&SW contractor,Yes,I0807,363,B2,0.00570293045134114,1.32688049528929e-06
70,Thuthukani (Sea Tide),Thuthukani,Genazzano Road,58,Tongaat Beach,"-29,6038051711012","31,1605602649051",Northern,Ablution Facility Taps & Standpipes,Ablution Facility,C&SW contractor,Planned,I0808,577,B2,0.0120935546728513,5.35340102730941e-06
71,New Glasgow Ematendeni Canelands, ,New Glasgow Road / Second Avenue / Old Mill Way / Station Rd,58,Canelands,"-29,6252700678282","31,0568131805001",Northern,Ablution Facility Taps,Ablution Facility,C&SW contractor,Planned,I0814,573,B1,0.0210838911034585,6.0818535585579e-06
72,Amawoti-Lybia -Palastine, ,District Road No.403,53/59/56,Amawoti / Etafuleni,"-29,6731104603641","30,98830748625",Northern,Ablution Facility Taps & Standpipes,Ablution facility & Pit Privies,C&SW contractor,Yes,I0009,959,B1,0.0426709150180857,4.08925180615754e-05
73,Amawoti-Lusaka, ,District Road No.403,53,Amawoti,"-29,6790714771441","30,9911264203927",Northern,Ablution Facility Taps & Standpipes,Ablution facility & Pit Privies,C&SW contractor,Yes,I0008,3561,B1,0.0348936285316696,5.97690512990642e-05
74,Amawoti-Zambia, ,District Road No.403,57,Amawoti,"-29,6928450582934","30,9711970025987",Northern,Ablution Facility Taps & Standpipes,Ablution facility & Pit Privies,C&SW contractor,Yes,I0015,646,B1,0.0181386821754589,1.60314278364447e-05
75,Amawoti-Mozambique, ,Street No. 121565,57/56,Amawoti / Goqokazi,"-29,6827288533152","30,9681015697587",Northern,Ablution Facility Taps & Standpipes,Ablution facility & Pit Privies,C&SW contractor,Yes,I0011,771,B1,0.0333750896972429,3.54895226133341e-05
76,Amawoti-Tanzania, ,District Road No.403,57/52,Amawoti,"-29,6856868982442","30,9741483881877",Northern,Ablution Facility Taps & Standpipes,Ablution facility & Pit Privies,C&SW contractor,Yes,I0014,2136,B1,0.0329026174904562,6.12291806383357e-05
77,Richmond Farm B,Ntuzuma - J & K,Mpangele Road / Ntuzuma - Main Road / Sambane Crescent,41/38/45,Ntuzuma - A / Ntuzuma - B / KwaMashu - N,"-29,7465352077987","30,9528749695001",Northern,Ablution Facility Taps & Standpipes,Ablution Facility,C&SW contractor,Yes,I0173,4332,B1,0.0981400478478887,6.04671322311212e-05
78,K Buffer, ,Phothwe Road,41,KwaMashu K / Ntuzuma - B,"-29,7555091699995","30,9541311310001",Northern,Ablution Facility Taps,Ablution Facility,C&SW contractor,Yes,I0095,159,B1,0.0114879526732325,2.1792066518748e-06
79,Amawoti-Zimbabwe, ,Westham Drive,52/57,Amawoti,"-29,6914530397925","30,9766110950783",Northern,Ablution Facility Taps,Ablution facility & Pit Privies,C&SW contractor,Yes,I0016,1034,B1,0.021409959351628,2.36576628141644e-05
80,Curnick Ndlovu, ,Curnick Ndlovu (KwaMashu) Highway,55,Ohlange / Mafukuzela,"-29,7084519224413","30,9584611078366",Northern,Ablution facility taps,Ablution facility,C&SW contractor,Planned,I0039,102,B1,0.00746494539050481,2.63239525510189e-06
81,Riet Rivier, ,Saturn Road,102,Riet Rivier/Ottawa / Trenance Park,"-29,661847175993","31,0218689086722",Northern,Standpipes,Pit Privies,C&SW contractor,Planned,I0841,158,B2,0.00627289307026957,2.21492652042027e-06
82,Mount Venon, ,Venus Road,102,Riet Rivier/Ottawa / Trenance Park,"-29,6645434825272","31,0193912730001",Northern,Standpipes,Pit Privies,C&SW contractor,Planned,I0842,199,B2,0.00786855556749044,1.52346932113006e-06
83,Investigate KwaMashu Newlands Interface overspill, ,Dumisani Makhaye Dr / Malandela Rd,40,Siyanda - Camp,"-29,7599261689275","30,9709068382502",Northern,Ablution Facility Taps,Ablution Facility & Pit Privies,C&SW contractor,TBC,I0871,99,B1/B2,0.00640000931628925,5.59380058955517e-07
84,NPA(Zamani), ,Provincial Road / Gopalall Hurbans Road,102,Ottawa South,"-29,6893684308479","31,0327279063737",Northern,TBC,Pit Privies,C&SW contractor,TBC,I0858,4,B2,0.000904798240319987,5.06444128759932e-08
85,Investigate Elangeni Ntuzuma - G settlement, ,Ithendele Drive,42,Ntuzuma - G,"-29,7232478619246","30,9424325450001",Northern,TBC,TBC,C&SW contractor,Yes,I0875,60,B2,0.00555253570049343,1.1039789132109e-06
86,Matamfana Ext?, ,Ngcebo Drive / Ibhucu Drive,45,KwaMashu N,"-29,7392434955306","30,9520653405001",Northern,Ablution Facility Taps & Standpipes,Ablution Facility & Pit Privies,C&SW contractor,Yes,I0126,294,B1,0.0216306510072929,9.26603377409819e-06
87,Bhambayi Phase 1 Ext, ,Curnick Ndlovu Highway,52,Bhambayi / Newtown C,"-29,7064720932249","30,9726285083983",Northern,Ablution Facility Taps & Standpipes,Ablution facility & Pit Privies,C&SW contractor,Yes,I0394,1712,B1,0.0207607049961051,1.84566076732798e-05
88,Greylands 82101 TRK Ext, ,Greylands 82101 TRK Ext,62,Greylands,"-29,5353666807515","31,1552637277236",Northern,TBC,Pit Privies,C&SW contractor,TBC,I0883,27,B2,0.00229965531246128,2.3785582411983e-07
89,Bhambayi Ghandi Settlement, ,Ntombi Mbiko Street,52,Bhambayi,"-29,7073670706764","30,975410001301",Northern,Standpipes,Pit Privies,C&SW contractor,Yes,I0024,248,B1,0.00565365742981224,1.68067972706759e-06
90,Ocean Drive (Relocated),Ocean Drive Inn,Ushukela Drive,58,Oceans,"-29,5907485401224","31,1479817815001",Northern,Standpipes,Pit Privies,C&SW contractor,Planned,I0809,20,B2,0.00638469129831219,7.10349794516553e-07
91,Canelands / St Peter, ,Ramnath Road,58,Canelands,"-29,6396035748096","31,055517325571",Northern,Ablution Facility Taps & Standpipes,Ablution Facility,C&SW contractor,Planned,I0588,367,C,0.0104284359069403,2.46024693667662e-06
92,Dunpals, ,Off Saxon Avenue,61,Buffels Kloof,"-29,5722130705859","31,0929402355001",Northern,TBC,TBC,C&SW contractor,Planned,I0053,18,B1,0.00473822062836796,5.01063359346254e-07
93,Amaotana Zwelisha,Zwelisha,Bonga Mambumba Road,102/59,Trenance Park,"-29,6668581542191","31,0071203256748",Northern,Ablution Facility Taps & Standpipes,Ablution Facility,C&SW contractor,Yes,I0004,3731,B1,0.0665038400106542,5.96644746637369e-05
94,Frasers, ,D433,62,Greylands,"-29,5326813113119","31,1668779882501",Northern,Ablution Facility Taps & Standpipes,Ablution facility,C&SW contractor,Planned,I0707,449,B2,0.0218265530018202,3.77887134289803e-06
95,Greylands phase 2 (Magwaveni), ,Greylands Road,62,Greylands,"-29,5503100268553","31,1438113217778",Northern,Ablution Facility Taps & Standpipes,Ablution Facility,C&SW contractor,Yes,I0082,1398,B1,0.0205409441958744,1.66353832523188e-05
96,Emona, ,82076 Street,61,Emona / Buffels Kloof,"-29,5497168169619","31,1015050269755",Northern,Ablution Facility Taps & Standpipes,Ablution Facility,C&SW contractor,Planned,I0407,197,B1,0.00672804274549223,2.17967424136788e-06
97,Amawoti-Moscow, ,District Road No.403,59/102/53,Amawoti / Amaotana,"-29,6691616125242","30,9969088998727",Northern,Ablution Facility Taps & Standpipes,Ablution facility & Pit Privies,C&SW contractor,Yes,I0010,1653,B1,0.0471335210659838,4.53897865087228e-05
98,Greylands 82101 TRK, ,Track 82101,62,Greylands,"-29,5374687093445","31,1534245435917",Northern,Ablution Facility Taps,Ablution Facility,C&SW contractor,Yes,I0818,65,B2,0.003254891279513,3.82497470038186e-07
99,Frasers Extension, ,Track 82095,62,Greylands,"-29,5314136393034","31,1651369865001",Northern,Ablution Facility Taps,Ablution facility & Pit privies,C&SW contractor,Planned,I0831,57,B2,0.00524494378616551,5.37819412801566e-07
100,Frasers Zikhali/Smamane, ,Unnamed Road,62,Greylands,"-29,5250626877736","31,1774384302502",Northern,Ablution Facility Taps & 1 Standpipe,Ablution Facility,C&SW contractor,Planned,I0832,62,B2,0.00419054010903654,7.09986650328163e-07
101,Ezinkawini, ,20330 Street / Venus Road,102,Riet Rivier/Ottawa / Trenance Park,"-29,661327508202","31,0170574463581",Northern,Ablution Facility Taps,Ablution facility & Pit Privies,C&SW contractor,TBC,I0843,106,B2,0.00546073267787723,1.01895152025724e-06
102,Drift, ,Drift Road,58,Canelands,"-29,6354572119536","31,0551647323929",Northern,Ablution Facility Taps,Ablution Facility,C&SW contractor,TBC,I0051,117,B1,0.00434218186870535,1.08101972947189e-06
103,Canelands Hilltop (Old Main Road), ,Old Main Road,58,Canelands,"-29,6278741770174","31,0614386855002",Northern,Ablution Facility Taps & Standpipes,Ablution Facility,C&SW contractor,TBC,I0029,162,B1,0.00910759901958146,2.05277187746423e-06
104,Umbhayi, ,Edmundsbury Street / 82088 Trk,61,Buffels Kloof,"-29,5736022885964","31,0886848381423",Northern,Ablution facility taps,Ablution Facility,C&SW contractor,TBC,I0920,1294,B1,0.0203541089767616,8.99858802648361e-06
105,Umlazi - N - NX5,NX5,Nkosi Avenue / Hlongwa Crescent / Griffiths Mxenge,82,Umlazi - N,"-29,9584859298652","30,8837854936648",Southern,Ablution Facility Taps,Ablution Facility,C&SW contractor,Yes,I0306,273,B1,0.0121946966512349,2.92294784181034e-06
106,Umlazi - N - NX1 (Elahlamlenze),NX1 (Elahlamlenze),Zamokuhle Street / Ngena Walk,82,Umlazi - N,"-29,9573727102283","30,8792481102501",Southern,Ablution Facility Taps & 1 Standpipe,Ablution Facility,C&SW contractor,Yes,I0304,111,B1,0.00753458019775818,9.16180378340853e-07
107,Umlazi - N - NX6 (Enkanini),NX6 (Enkanini ),Mabhnu Sabela Avenue / Mskhosi Street,85,Umlazi - N,"-29,9678713363648","30,877904784451",Southern,Ablution Facility Taps & 1 Standpipe,Ablution Facility,C&SW contractor,Yes,I0307,195,B1,0.00724248329230395,1.72498616408676e-06
108,Umlazi - A - AA (Siphola),AA -Siyaphola),Simalane Drive,85,Umlazi - AA,"-29,9800428257533","30,88122642525",Southern,Ablution Facility Taps & 2 Standpipe,Ablution Facility,C&SW contractor,Yes,I0210,173,B1,0.0104924449127847,1.70271135547253e-06
109,Umlazi - P - P5/PX3,P5/PX3,Mkhiwane Street / Phambili Road,85/87,Umlazi - P / Umlazi - Q,"-29,9803025436044","30,8852695141995",Southern,Ablution Facility Taps,Ablution Facility,C&SW contractor,Yes,I0309,381,B1,0.0221332092721126,3.1538578084257e-06
110,Umlazi - P - PX1,PX1,Sikhonko Road / Emthethweni Road,85,Umlazi - P,"-29,9715960225121","30,8835257770246",Southern,TBC,Pit Privies,C&SW contractor,Yes,I0311,23,B1,0.00231617372630585,2.42220511228576e-07
111,Umlazi - N - N1,N1,Mabhunu Sabela Avenue / Masakhane Road,85,Umlazi - N,"-29,9681507292299","30,8798198485001",Southern,1 Standpipe,Pit Privies,C&SW contractor,Yes,I0565,19,B2,0.00236338629553967,1.20004734810765e-07
112,Umlazi - N - N4,N4,Zamokuhle Street,82,Umlazi - N,"-29,95837458308","30,8773363447501",Southern,TBC,Pit Privies,C&SW contractor,Yes,I0302,63,B1,0.00574786470614042,5.71862269971652e-07
113,Umlazi - N - N3,N3,Mbhele Place,82,Umlazi - N,"-29,9588240963142","30,8750520680001",Southern,Ablution Facility Taps,Ablution Facility,C&SW contractor,Planned,I0301,195,B1,0.0128531179203932,2.30811266849576e-06
114,Umlazi - Z - Sukuma (Z),Sukuma (Z),South Spinal Road / Simalane Drive,85,Umlazi - Z / Umlazi - AA,"-29,9823019798707","30,8831362885001",Southern,1 Standpipe,Pit Privies,C&SW contractor,Planned,I0813,19,B2,0.00331794163517656,1.10785274648261e-07
115,Stmote 2, ,83239 Trk & 300066 Str,99,Clansthal,"-30,183999576986","30,7555840427366",Southern,TBC,TBC,C&SW contractor,Planned,I0532,14,B2,0.00417172418258065,2.28241402978174e-07
116,Umlazi - N - Shazi Rd,Umlazi - - N Shazi Rd,Shazi Road / Phila Ndwandwe,85,Umlazi - N,"-29,9651979817064","30,8776056535002",Southern,TBC,TBC,C&SW contractor,TBC,I0874,39,B1,0.00500887562401797,4.44990841643603e-07
117,Folweni sites, ,Spine / Bhekiziyha / Thasoso,95 / 67,Folweni / Adams Rural,"-30,001106332609","30,8218910030001",Southern,TBC,Pit Privies,C&SW contractor,Yes,I0880,539,B1/B2,0.118292842036469,3.59539856528407e-05
118,Umlazi - N - Maponya / Nkusi,Maponya / Nkusi,Maponya Street / Nkosi Avenue,82,Umlazi - N,"-29,9589180269422","30,8816304897501",Southern,TBC,TBC,C&SW contractor,Planned,I0300,10,B1,0.00189868300134803,6.51382187581969e-08
119,Umlazi - N - NX2,NX2,Mthembu Place,82,Umlazi - N,"-29,957248737573","30,8817778589415",Southern,TBC,Pit Privies,C&SW contractor,Yes,I0305,12,B1,0.00128679352806072,6.85085027373385e-08
120,Umlazi - Q - QX6,QX6,Mkhiwane Street,87/86,Umlazi - Q / Umlazi - Z,"-29,9826046927261","30,8858069540523",Southern,Ablution Facility Taps,Ablution Facility,C&SW contractor,Yes,I0321,238,B1,0.0141832560080984,2.79036751776888e-06
121,Umlazi - Z - Z7,Z7,South Spinal Road / Malusi Cele Avenue / Inqawe Circle,85,Umlazi - Z / Umlazi - U,"-29,9885631503933","30,8851730630001",Southern,Standpipes,VIPs,C&SW contractor,Planned,I0357,46,B1,0.00616731611291217,4.99942568015802e-07
122,Umlazi - Z - ZX7,ZX7,South Spinal Road / Mkhathali Drive,86,Umlazi - Z,"-29,9950065314438","30,8788600331375",Southern,Standpipes,Pit Privies,C&SW contractor,Planned_street lights,I0558,116,B2,0.0176757802865303,3.92000178232854e-06
123,Umlazi - R - DX4,DX4,Siyaya Street and Griffiths Mxenge Highway,88,Umlazi - R / Umlazi - D / Umlazi - W,"-29,9641773527495","30,8938948366718",Southern,Ablution Facility Taps & 1 Standpipe,Ablution Facility,C&SW contractor,Planned,I0323,189,B1,0.00839700525783134,1.28148062902025e-06
124,Umlazi - Q - QX4,QX4,Ngwenya Road / Phahla Street / Malizwenda Road,87,Umlazi - Q,"-29,9790034883351","30,8907824305002",Southern,Ablution Facility Taps & 2 Standpipe,Ablution Facility,C&SW contractor,Yes,I0320,92,B1,0.00591576800424798,1.14951077341613e-06
125,Umlazi - R - R6 (West),R6 (West),Griffiths Mxenge Highway / Ndokwenhle Street,82,Umlazi - R,"-29,9629322685921","30,8933959097502",Southern,Ablution Facility Taps,Ablution Facility,C&SW contractor,Yes_Under Construction,I0325,187,B1,0.012358858630068,1.70127873181781e-06
126,Umlazi - Z - Z9,Z9,Khonto Circle / Silwanendlala Grove,85,Umlazi - Z,"-29,987216771293","30,8781279485001",Southern,Yes,VIPs,C&SW contractor,Planned_street lights,I0359,16,B1,0.00423718571575784,3.51969970779004e-07
127,Umlazi - Z - Z1,Z1,Mkhonto Circle Smomondiya Grove / South Spinal Road,85,Umlazi - Z,"-29,9859463662588","30,874780076",Southern,Yes,VIPs,C&SW contractor,Planned_street lights,I0354,31,B1,0.0105316691197882,8.01430503503472e-07
128,Umlazi - Z - Rd 107164,Rd 107164 Umlazi - Z,107164 Street / Gum Tree Crescent,85,Umlazi - Z,"-29,9846972765014","30,8893446347656",Southern,TBC,TBC,C&SW contractor,Planned,I0352,35,B1,0.00409118545893868,6.10884286107528e-07
129,Umlazi - Q - Q16,Q16,Maviyo Road / Mkhiwane Street,87,Umlazi - Q,"-29,9824637048296","30,8882149765001",Southern,Ablution Facility Taps,Ablution Facility,C&SW contractor,Planned,I0315,250,B1,0.0201420262060056,2.72172066616396e-06
130,Umlazi - G - GX7 (Danisa Village),GX7 (Danisa Village),Esduardo Mondlane,82,Umlazi - G,"-29,955636917564","30,886541777",Southern,Ablution Facility Taps,Ablution Facility,C&SW contractor,Yes,I0205,222,B1,0.0190474456386969,1.33326517690886e-06
131,Umlazi - H - HX1,HX1,King Dingane Road/ 120732 Street,82,Umlazi - H / Umlazi - N,"-29,9567236151173","30,8794164980001",Southern,TBC,Pit Privies,C&SW contractor,Yes,I0552,452,B2,0.0320936996469498,3.93730902670834e-06
132,Umlazi - H - WX2 (White City),WX2 (White City),Esduardo Mondlane Road / Blessing Mabaso Road,82,Umlazi - H,"-29,9572870240277","30,8837427681693",Southern,Ablution Facility Taps & Standpipes,Ablution Facility,C&SW contractor,Yes,I0258,218,A,0.0172416962672661,1.39720651285988e-06
133,Umlazi - G - GX11 (Khayelihle),GX11 (Khayelihle),Sbusiso Mdakane Drive / Nunu Shezi Drive,79,Umlazi - G,"-29,9451029602961","30,8835095023205",Southern,TBC,VIPs,C&SW contractor,Yes,I0246,84,A,0.00957819822589599,5.40379176793508e-07
134,Umlazi - Z - Z8,Z8,Ingilosi Close,85,Umlazi - Z,"-29,9908998665798","30,8794373145001",Southern,Yes,VIPs,C&SW contractor,Planned_street lights,I0358,16,A,0.0035997257234114,1.83816611390511e-07
135,Umlazi - Z - Z6,Z6,Inqawe Circle / Mamthombeni Close,85,Umlazi - Z,"-29,9878130559218","30,8846951477501",Southern,Ablution Facility Taps,Ablution Facility,C&SW contractor,Planned_street lights,I0356,29,A,0.00394677300998294,1.78219561955281e-07
136,Umlazi - U - U2 (Ezitimeleni),Umlazi - Part 3 - U2 ( Ezitimeleni),Phutumani Avenue / Cwebile Place,86,Umlazi - U,"-29,9932493943161","30,8853987565001",Southern,Yes,VIPs,C&SW contractor,Planned_street lights,I0336,21,A,0.00252532587925472,1.12687584078617e-07
137,Umlazi - Z - Island (Z),Island (Z),South Spinal Road,85/86,Umlazi - Z / Umlazi - U,"-29,9866914110992","30,8860070192501",Southern,Ablution Facility Taps & 1 Standpipe,Ablution Facility & Pit Privies,C&SW contractor,Yes,I0351,72,B1,0.00755540807444612,7.98666349330598e-07
138,Umlazi - R - R10 (Mapetla),R10 (Mapetla),Ekuphileni Road / Vusi Mtshali Drive,85,Umlazi - R,"-29,968972433006","30,8819087622883",Southern,Ablution Facility Taps,Ablution Facility & Pit Privies,C&SW contractor,Yes,I0568,37,B2,0.00326451446331574,2.77648895116737e-07
139,Umlazi - R - RX1,RX1,Madadeni Close / Njilo Crescent,82,Umlazi - R,"-29,9662332921524","30,8902077910001",Southern,TBC,Pit Privies,C&SW contractor,Yes,I0703,11,B2,0.00180418018747279,7.58024411497401e-08
140,Umlazi - U - U (Phola Park),U (Phola Park),South Spinal Road,85/86,Umlazi - U,"-29,9911600633189","30,8846539744864",Southern,TBC,Pit Privies,C&SW contractor,Yes,I0334,61,B1,0.00707110990651294,4.770454916988e-07
141,Umlazi - Z - ZX2,ZX2,South Spinal Road / Malusi Cele Avenue,85,Umlazi - Z,"-29,9900228295497","30,8842197090082",Southern,Ablution Facility Taps & Standpipes,Ablution Facility,C&SW contractor,Planned,I0361,115,B1,0.00546465538826863,1.46040202976366e-06
142,Umlazi - R, ,Mayibuye Road,82,Umlazi - R,"-29,9628636291893","30,8907261622502",Southern,Ablution Facility Taps,Ablution facility & Pit privies,C&SW contractor,Planned,I0322,40,B1,0.00467084057009766,2.99474552897436e-07
143,Samseni 1, ,Hillary Road / N2,99,Craigieburn,"-30,2142536394907","30,7720141810126",Southern,Ablution Facility Taps & 1 Standpipe,Ablution Facility,C&SW contractor,Planned,I0606,166,B2,0.0120477629056503,1.85471734503779e-06
144,Stomote(Hull Valley), ,300095 Street / M529,99,Clansthal,"-30,1873929672047","30,7429374892502",Southern,TBC,Pit Privies,C&SW contractor,Planned,I0195,252,B1,0.048119170215954,9.36441015857361e-06
145,Hull Valley, ,M529,99,Clansthal,"-30,1916705567089","30,7418744375001",Southern,TBC,Pit Privies,C&SW contractor,Yes,I0088,119,B1,0.0124404052623308,2.35263319428809e-06
146,Samseni 2, ,N2,99,Craigieburn,"-30,2142604978437","30,7738693660001",Southern,Ablution Facility Taps & 1 Standpipe,Ablution Facilty,C&SW contractor,Planned,I0608,127,B2,0.00539003442325061,4.04311546482988e-07
147,London Farm, ,R78,99,Craigieburn,"-30,2073541387825","30,7599985827742",Southern,TBC,Pit Privies,C&SW contractor,Planned,I0609,81,B2,0.00720010028693593,1.55849675647972e-06
148,Magabheni, ,Sibhakada Road,99,Magabeni,"-30,1696796214699","30,7716135005339",Southern,Ablution Facility Taps & Standpipes,Ablution facility & Pit Privies,C&SW contractor,TBC,I0845,35,C,0.00264484375410125,1.49722639407934e-07
149,Ehlathini, ,Maqhelefika Road,99,Clansthal,"-30,1923482422831","30,7448628250001",Southern,TBC,TBC,C&SW contractor,TBC,I0909,33,B2,0.0146520264496749,1.45095989915032e-06
150,Umlazi - G - GX2 (Maputo) Overspill,GX2 ( Maputo),Imvubu Street / Umonya Road,79,Umlazi - G,"-29,9508780227167","30,8871424625",Southern,TBC,VIPs,C&SW contractor,Yes,I0247,22,B1,0.00412115993965013,2.59966408663973e-07
151,Umlazi - J - J2,J2,King Dingane Road / Griffiths Mxenge Highway,83,Umlazi - J,"-29,9587470016942","30,8646408640719",Southern,Ablution Facility Taps,Ablution Facility,C&SW contractor,Yes,I0263,248,B1,0.0106336845365668,1.6776843256492e-06
152,Umlazi - J - JX1,JX1,Griffiths Mxenge Highway,78,Umlazi - J,"-29,9607424744368","30,8591623880001",Southern,Ablution Facility Taps,Ablution Facilty,C&SW contractor,Yes,I0266,213,B1,0.017905013366586,1.6859868525416e-06
153,Umlazi - L - LX7,LX7,1130 Street / Griffiths Mxenge Highway,83/78,Umlazi - L,"-29,9612281687973","30,8604193710001",Southern,Ablution Facility Taps & Standpipes,Ablution Facility,C&SW contractor,Yes,I0288,312,B1,0.0160785631645013,2.09067406588708e-06
154,Umlazi - L - LX3 (Shayamoya),LX3 (Shayamoya),Sithole Road / 1130 Street / Griffiths Mxenge Highway,83,Umlazi - L / Umlazi - M,"-29,9609068752227","30,8646315365001",Southern,Ablution Facility Taps,Ablution Facilty,C&SW contractor,Yes,I0562,126,B2,0.00636718149196937,6.98458743987431e-07
155,Umlazi - N - N10 (Menzi),N2 (Menzi),1202 Street / Griffiths Mxenge,82,Umlazi - N,"-29,9617350185164","30,8724375555001",Southern,Ablution Facility Taps,Ablution Facility,C&SW contractor,Yes,I0566,140,B2,0.0168507468961435,1.00618747934676e-06
156,Umlazi - M - M1,M1,Emthethweni Road / Griffiths Mxenge Highway,83,Umlazi - M,"-29,9627854975748","30,8715309959777",Southern,Ablution Facility Taps & 1 Standpipe,Ablution Facility,C&SW contractor,Planned,I0290,181,B1,0.00595932161271407,1.04414617643439e-06
157,Umlazi - M - M2,"M2, Umlazi - Part 6 (MX5,M12,M18)",Njokweni Crescent / Ngwemabala Place,83,Umlazi - M / Umlazi - N,"-29,9643392936501","30,8727530220001",Southern,Ablution Facility Taps,Ablution Facility,C&SW contractor,Yes,I0563,175,C,0.00959519686578889,1.33296545831127e-06
158,Umlazi - L - L2 (Egcakini),L2 (Egcakini),1115 Road / Ngangenkomeo Way,83,Umlazi - L,"-29,9681793477028","30,8603816098424",Southern,Ablution Facility Taps,Ablution Facility,C&SW contractor,Yes,I0286,257,B1,0.00981403265664565,2.50589034982047e-06
159,Umlazi - L - L2,L2,1103 Street / Ngangenkomeo Way,83,Umlazi - L,"-29,9679395393067","30,8617415910001",Southern,Ablution Facility Taps,Ablution Facility,C&SW contractor,Yes,I0285,79,B1,0.00554484163024614,6.59624594053149e-07
160,Umlazi - L - L12 (Ekuthuleni),L12 (Ekuthuleni),1103 Street / Corner Kick Way / Ekuthuleni Close,83,Umlazi - L,"-29,968745453251","30,8630211240001",Southern,Ablution Facility Taps,Ablution Facility,C&SW contractor,Yes,I0284,397,B1,0.0106594949774405,2.58215317362917e-06
161,Umlazi - K - K16/17,K16/17,Mpevu Road / Umzimvubu Road,78,Umlazi - K,"-29,9702211137198","30,8557185275001",Southern,Ablution Facility Taps,Ablution Facility,C&SW contractor,Planned,I0277,107,B1,0.00994339284469253,1.17858589743668e-06
162,Umlazi - L - LX1 (Kwaphumephethe),LX1 (Kwaphumephethe),Mugabe Road,83,Umlazi - L / Umlazi - AA,"-29,9746285673487","30,8680561305",Southern,TBC,Pit Privies,C&SW contractor,Yes,I0559,54,C,0.00432924085644411,3.77736837096933e-07
163,Umlazi - M - M8/9/10,"M8/9/10, Umlazi - Part 6, MX7",Sukuma Road / Monya Road / Nongqawuse Road,83,Umlazi - M / Umlazi - L,"-29,9745003514516","30,8708792897756",Southern,Ablution Facility Taps & 2 Standpipe,Ablution Facility,C&SW contractor,Planned,I0294,680,B1,0.0240841469020326,7.128923271241e-06
164,Umlazi - M - M5,M5,1103 Street / Nyambose Place,83,Umlazi - M,"-29,9707803269177","30,8694057285002",Southern,Ablution Facility Taps,Ablution Facility,C&SW contractor,Planned,I0293,216,B1,0.0123808682604635,1.82358439520597e-06
165,Umlazi - A - MX1,MX1,Nongqawuse Road,83,Umlazi - M / Umlazi - AA,"-29,9775277459024","30,876021824797",Southern,Ablution Facility Taps,Ablution Facility,C&SW contractor,Yes,I0142,231,B1,0.0115071040522642,2.69211048079567e-06
166,Umlazi - M - MX4 (Ekuthuleni),MX4 (Ekuthuleni),Emthethweni Road / Mkhovothi Road,83,Umlazi - M,"-29,9739566388366","30,8768866530001",Southern,Ablution Facility Taps,Ablution facility & Pit Privies,C&SW contractor,Yes,I0555,141,C,0.0134844286080665,1.16618821009223e-06
167,Umlazi - M - MX2,MX2,Maphitha Road,83,Umlazi - M,"-29,9756069455804","30,8792837725001",Southern,Ablution Facility Taps & 2 Standpipe,Ablution Facility,C&SW contractor,Yes,I0296,201,B1,0.0210077143081663,1.97561800133395e-06
168,Umlazi - L - LX2,LX2,Ematsheni Place,83,Umlazi - L,"-29,9652584794694","30,8671845050919",Southern,TBC,Pit Privies,C&SW contractor,Yes,I0287,77,B1,0.00593352370852803,4.25872657168183e-07
169,Umlazi - L - LX6 E ( Nyanda Park),LX6 E ( Nyanda Park),Bheka Road / Khalamazu Road,83,Umlazi - L,"-29,9706827678884","30,8650042730001",Southern,1 Standpipe,Pit Privies,C&SW contractor,Planned,I0702,28,B2,0.00170823790179489,1.21564927200122e-07
170,Umlazi - J - JX15,JX15,Mthombothi Avenue / Sinqawe Lane,78,Umlazi - J,"-29,9575068969602","30,8569128257375",Southern,Ablution Facility Taps,Ablution Facility,C&SW contractor,Planned,I0560,29,B2,0.00199336141129558,1.59717144669814e-07
171,Umlazi - J - J12,J12,Ngcongo Avenue,78,Umlazi - J,"-29,9577375988258","30,8589703425001",Southern,Ablution Facility Taps,Ablution Facility,C&SW contractor,Planned,I0259,48,B1,0.00641253168987843,3.97262232104613e-07
172,Umlazi - L - LX2 (Phola Park),"LX2 (Phola Park), Umlazi - Part 2",Bhabha Road,83,Umlazi - L,"-29,9681975956631","30,867226169565",Southern,TBC,Pit Privies,C&SW contractor,Yes,I0561,8,B2,0.00194845975603623,8.68798495229684e-08
173,Umlazi - N - N11,N11,Sosibo Place,85,Umlazi - N,"-29,9668022121477","30,8732250402081",Southern,TBC,Pit Privies,C&SW contractor,Yes,I0564,12,B2,0.00171759350638678,1.1236116040187e-07
174,Umlazi - M - M 7/MX14 (Emhlabeni),M 7/MX14 (Emhlabeni),Mshengu place / Nhlakanipho Place / Ntombazi Street,83/85,Umlazi - M,"-29,9676319316314","30,8729925652873",Southern,Ablution Facility Taps & 6 Standpipe,Ablution Facility,C&SW contractor,Planned,I0289,116,B1,0.0092915706013054,9.00310041855777e-07
175,Umlazi - M - M12,M12,Emthethweni Road / Mabhuda Road,83,Umlazi - M,"-29,9731117408751","30,8744342350552",Southern,Ablution Facility Taps & 4 Standpipe,Ablution Facility,C&SW contractor,Yes,I0291,304,B1,0.012032383641796,3.14204748263397e-06
176,Umlazi - M - MX15,MX15,Griffiths Mxenge Highway / Emthethweni Road,83,Umlazi - M,"-29,9627600009778","30,8694077509987",Southern,Ablution Facility Taps,Ablution Facility,C&SW contractor,Planned,I0295,119,B1,0.00520250883503595,5.82298569516832e-07
177,K2,K2,Sangcobe Road,78/83,Umlazi - K,"-29,9651125894965","30,8608117730001",Southern,TBC,TBC,C&SW contractor,Planned,I0279,24,B1,0.00358223467252134,1.58535375779591e-07
178,Umlazi - P - Nyathela Rd,Nyathela Rd,Nyathela Roadd,85,Umlazi - P,"-29,9774681458804","30,8808206996787",Southern,TBC,TBC,C&SW contractor,Planned,I0308,12,B1,0.00216334996126739,8.18581626672301e-08
179,Umlazi - M - H1 (Enkanini),H1 (Enkanini),Kind Dingane Road,83,Umlazi - M / Umlazi - H,"-29,9590011288737","30,8717854057501",Southern,Ablution Facility Taps & 1 Standpipe,Ablution facility & Pit Privies,C&SW contractor,Yes,I0812,70,C,0.00344415099543772,2.73345352729387e-07
180,Umlazi - L - L12,L12,1103 Street,83,Umlazi - L,"-29,9642870416635","30,8640097665001",Southern,TBC,TBC,C&SW contractor,Planned,I0817,75,B2,0.00870997135361051,5.34003485294016e-07
181,Umlazi - M - MX7 (Zamokuhle),MX7 (Zamokuhle),Malasi Street /  Zamokuhle Street / Emthethweni Road,83,Umlazi - M,"-29,9673623048868","30,8709878806758",Southern,Ablution Facility Taps & Standpipes,Ablution Facility,C&SW contractor,Planned,I0299,28,B1/A,0.00158094162082746,1.23937551959922e-07
182,Umlazi - L - L12 1 Overspill, ,Sinamuva Street,83,Umlazi - M,"-29,9634080930463","30,8655248559063",Southern,TBC,TBC,C&SW contractor,TBC,I0908,46,B1,0.00238406640100824,1.96935279788338e-07
183,Umlazi - AA - Chicago,"AA-Chicago, Umlazi - Part 6",Chicago Road,84,Umlazi - AA,"-29,9734703956472","30,8584955010001",Southern,Standpipes,Ablution Facility & Pit Privies,C&SW contractor,Yes,I0214,1128,B1,0.0336497061164903,9.78462621075071e-06
184,Umlazi - - L4 (A&B),L4 (A&B),Phola Crescent / Sakhisizwe Place,83,Umlazi - L,"-29,9718876648477","30,8601263372501",Southern,Ablution Facility Taps & 4 Standpipe,Ablution Facility,C&SW contractor,Yes,I0206,165,B1,0.0164183662248211,2.11496501806187e-06
185,Umlazi - A - AA X4 (Power),AAX4-Power station,Mugabe Road,84,Umlazi - AA / Umlazi - L,"-29,9745807245926","30,8638426665001",Southern,Ablution Facility Taps & Standpipes,Ablution Facility,C&SW contractor,Yes,I0211,420,B1,0.0171522118093017,2.75483953109409e-06
186,Umlazi - H - H7,H7,Senzangakhona Road,79,Umlazi - H,"-29,9448942417517","30,873695486",Southern,TBC,Pit Privies,C&SW contractor,Yes,I0253,122,B1,0.0142704291122782,9.79296107750786e-07
187,Umlazi - H - H1,H1,Sokesimbone Road,83,Umlazi - H,"-29,9557420149768","30,8666562687311",Southern,Ablution Facility Taps,Ablution Facility,C&SW contractor,Yes,I0846,57,B2,0.00372127020146055,2.23797332729773e-07
188,Umlazi - G - GX3,GX3,107810 Street / Bheki Mkhasibe Road,79,Umlazi - G,"-29,9430999933085","30,8783581089443",Southern,TBC,VIPs,C&SW contractor,Yes,I0248,46,A,0.00396549114460639,2.28719112451841e-07
189,Umlazi - G - GX4,GX4,Ndlulamithi Crescent,79,Umlazi - G,"-29,9421249744523","30,8781626090001",Southern,Ablution Facility Taps,Ablution Facility,C&SW contractor,Yes,I0249,490,A,0.052340033838066,4.09267681211249e-06
190,Umlazi - P - PX7,PX7,Mabopha Avenue / Umdoni Street,87/85,Umlazi - P,"-29,9704952037435","30,8893477627419",Southern,Ablution Facility Taps,Ablution Facility & Pit Privies,C&SW contractor,Planned,I0313,60,B1,0.0044482433998177,4.69539749294276e-07
191,Umlazi - N - N6,N6,Vusi Mtshali Drive / Mambo Avenue,85,Umlazi - M / Umlazi - N,"-29,9704032304018","30,8793229212353",Southern,TBC,Pit Privies,C&SW contractor,Yes,I0303,34,B1,0.00419442831558418,3.11483519953603e-07
192,Umlazi - N - Maponya 2, ,Maponya Street,82,Umlazi N,"-29,9593282003898","30,8810904649998",Southern,TBC,TBC,C&SW contractor,TBC,I0921,23,B1,0.0039395004581074,2.07971895019345e-07
193,Umlazi - Q - Q13 & 14 overspill, ,Maviyo Road / 109411 street,87,Umlazi Q,"-29,9841400248736","30,8907230535",Southern,TBC,TBC,C&SW contractor,TBC,I0922,49,B2,0.00534719374385347,3.4145374285167e-07
194,Umlazi - G -GX1,GX1,Chester Cele Crescent/ Indlulamithi Crescent,79,Umlazi - G,"-29,9486147112368","30,8814230687842",Southern,Ablution Facility Taps,Ablution Facility,C&SW contractor,Yes,I0250,12,A,0.00371299392155228,1.19362091904127e-07
195,Umlazi - - F1 Overspill, ,Inkanyamba Road,81/82,Umlazi - G / Umlazi - F,"-29,9520916463244","30,8890933284803",Southern,TBC,Pit Privies,C&SW contractor,Planned,I0838,23,C,0.00481202673209163,2.71847675327877e-07
196,Umlazi - Z - Z5,Z5,Malusi Cele Avenue / Iphupho Grove / Inqawe Circle,85,Umlazi - Z,"-29,9892345268211","30,8836389595693",Southern,Ablution Facility Taps & 3 Standpipe,Ablution Facility,C&SW contractor,Planned_street lights,I0355,37,A,0.0102060688561927,6.15134703635433e-07
197,Umlazi - U - U M H (Lusaka),U M H (Lusaka),South Spinal Road / Masihlangane Lane,85,Umlazi - U,"-29,9901542094528","30,8873694075001",Southern,3 standpipes,VIPs,C&SW contractor,Yes,I0335,47,A,0.00699424220003822,3.04329139237453e-07
198,Umlazi - Z - ZX1,ZX1,Mzwandile Close,85,Umlazi - Z,"-29,9915676185616","30,88290088475",Southern,TBC,Pit Privies,C&SW contractor,Planned,I0360,28,B1,0.00335048537386519,1.46894036346803e-07
199,Umlazi - A - AAX4 (Extension),AAX4-Extension,Mugabe Road,84,Umlazi - AA,"-29,9748608524192","30,8666058685001",Southern,Ablution Facility Taps,Ablution Facility,C&SW contractor,Yes,I0700,35,B2,0.00404031114326643,1.58421674563154e-07
200,Umlazi - M - MX3,MX3,Mqangala Road / Mkhovothi Road,83,Umlazi - M,"-29,975454914085","30,8764151983353",Southern,Ablution Facility Taps & 1 Standpipe,Ablution Facility,C&SW contractor,Yes,I0297,160,B1,0.0152287353021658,1.66027837331316e-06
201,Umlazi - J - JX8,JX8,Sgqoko Road,83,Umlazi - J / Umlazi - M,"-29,960145678435","30,8656998692501",Southern,Standpipes,Pit Privies,C&SW contractor,Yes,I0271,70,B1,0.00886404043977508,6.11622301784539e-07
202,Umlazi - M - M14(Shisa-Bhe),M14(Shisa-Bhe),Vusi Mtshali Drive / Hosiyana Streey,83,Umlazi - M,"-29,9706393353719","30,8759320275",Southern,Ablution Facility Taps & 2 Standpipe,Ablution Facility,C&SW contractor,Yes,I0292,233,B1,0.0207413162928292,1.69448393226967e-06
203,Umlazi - J Station, ,King Dingane Road,83/77,Umalzi J / Umlazi - M,"-29,9559426192374","30,8660130967225",Southern,Ablution Facility Taps & Standpipes,Ablution Facility,C&SW contractor,Planned,I0272,375,B1,0.0260396550515785,1.9124256028112e-06
204,Umlazi - H - HX2 Overspill,HX2 Overspill,Tsitsi Mashinini Road / 107930 Street,82,Umlazi - H,"-29,9491016982096","30,876899634924",Southern,TBC,VIPs,C&SW contractor,TBC,I0869,15,B2,0.00205986125522773,5.59164522644633e-08
205,Umlazi - P - PMH,PMH,Emthethweni Road / Zama Ngobo Avenue,85/83,Umlazi - P / Umlazi - M,"-29,9749839566495","30,8786397517502",Southern,TBC,Pit Privies,C&SW contractor,Yes,I0310,100,A,0.0105281297124548,8.74223891835725e-07
206,Umlazi - P - PX4,PX4,Bhubhubhu Road / Phambili Road / Mkhiwane Road,85,Umlazi - P / Umlazi - Q,"-29,9801433147603","30,8823367045001",Southern,Ablution Facility Taps,Ablution Facility,C&SW contractor,Yes,I0312,130,B1,0.0130216100583853,9.75795192660899e-07
207,Umlazi - G - GX5 (Ekuthuleni),GX5 (Ekuthuleni),Igwababa Crescent / Iphothwe Lane,79,Umlazi - G,"-29,9452716670502","30,8799406610001",Southern,TBC,Pit Privies,C&SW contractor,Yes,I0546,65,B2,0.00933666061211203,5.12408173897246e-07
208,Umlazi B10 - HX4 Overspill, ,122774 street / 107810 street,79,Umlazi H / Umlazi G,"-29,9415637296099","30,8753678247501",Southern,TBC,TBC,C&SW contractor,TBC,I0923,306,B2,0.0310135151230001,3.22910990328475e-06
209,Umlazi - H - HX3,HX3,109136 Street / Bheki Mkhasibe Road,79,Umlazi - H,"-29,9473376143329","30,8734717426092",Southern,TBC,VIPs,C&SW contractor,Yes,I0254,594,A,0.0591493991280097,4.35536009512231e-06
210,Umlazi - H - H3/H17,"H3/H17, HX17",Tsitsi Mashinini Road / 107930 Street,82,Umlazi - H,"-29,9515257695013","30,8725076275001",Southern,TBC,VIPs,C&SW contractor,Yes,I0252,185,B1,0.011551108028163,1.32075665808629e-06
211,Kwa Ntobela, ,300066 Street,99,Clansthal,"-30,1901270907437","30,7514857135735",Southern,TBC,Pit Privies,C&SW contractor,Planned,I0607,57,C,0.00871959694152592,5.3923731604281e-07
212,Umlazi - M - MX6 (Ekuphileni),MX6 (Ekuphileni),Esiphethwini Road / Viviyo Road / Mphathi Avenue,83/85,Umlazi - M,"-29,97262518296","30,8778561972501",Southern,Ablution Facility Taps & 2 Standpipe,Ablution Facilty,C&SW contractor,Yes,I0298,44,B1,0.0102810327324196,7.4098937491839e-07
213,Umlazi - A - A3,A3,Lucky Lushaba Road,80,Umlazi - A,"-29,956376901609","30,9139412345",Southern,Ablution Facility Taps & Standpipes,Ablution Facility,C&SW contractor,Yes,I0209,88,B1,0.0100428635768487,1.35610345153185e-06
214,Umlazi - B - BX9 (Emndeni II),BX9 (Emndeni II),Zimbali Road,80,Umlazi - B,"-29,9564286694132","30,9118109401866",Southern,Ablution Facility Taps & Standpipes,Ablution Facility,C&SW contractor,Yes,I0219,24,B1,0.00327428052270747,2.77479109735806e-07
215,Umlazi - B - BX6 (Emndeni I),BX6 (Emndeni I),Veni Yeni Road,80,Umlazi - B,"-29,9573070901411","30,9098718762501",Southern,Ablution Facility Taps & Standpipes,Ablution Facility,C&SW contractor,Yes,I0218,56,B1,0.00553125831707979,6.22515785425655e-07
216,Umlazi - A - A1,A1,Lucky Lushaba Road / Zimbali Road,80,Umlazi - A,"-29,9582084033284","30,9125301154363",Southern,Ablution Facility Taps & 1 Standpipe,Ablution Facility,C&SW contractor,Yes,I0208,39,B1,0.00474704704708904,3.7010237105996e-07
217,Umlazi - A - AX1,AX1,Gybon Mpanza Drive / Veni Yeni Road,88/80,Umlazi - A,"-29,9599798138628","30,9130436225",Southern,Ablution Facility Taps & 2 Standpipe,Ablution Facility,C&SW contractor,Yes,I0212,86,B1,0.0110496932746002,1.34935735612354e-06
218,Umlazi - D - D1 (Ebuhleni),D1 (Ebuhleni),Ntonto Zulu Drive,88,Umlazi - D,"-29,9609170640707","30,9088919396775",Southern,Standpipes,Planned Ablution Block,C&SW contractor,Yes,I0701,34,C,0.00269693352552769,3.1262341550722e-07
219,Umlazi - A - AX2,Umlazi - Part 3 - AX2,Veni Yeni Road,88,Umlazi - A,"-29,9594809875939","30,9176313055001",Southern,Ablution Facility Taps & Standpipes,Ablution Facility,C&SW contractor,Yes,I0213,33,B1,0.00353380838828415,1.82107325321214e-07
220,Umlazi - A - AX4 (Shayamoya) - Investigate with V1,AX4 (Shayamoya),Veni Yeni Road,88,Umlazi - A,"-29,9585537092515","30,9197607390341",Southern,Ablution Facility Taps,Ablution Facility,C&SW contractor,Yes,I0207,52,B1,0.00457416463704117,2.06830330671367e-07
221,Mfeka Place, ,Ntuli Street / Ntuli Walk / Ngidi Place,74,Lamontville,"-29,9439197379475","30,9414062020001",Southern,"Ablution Facility Taps, 2 Standpipes & Ground water tanks",Ablution Facility,C&SW contractor,Planned,I0129,63,B1,0.00690319839862683,2.6577151070058e-07
222,Umlazi - B - BX1 (Phola Place),BX1 (Phola Place),Imfongosi Drive / Zitinini Drive,81/80,Umlazi - B,"-29,9531073967461","30,9107114235001",Southern,Ablution Facility Taps & Standpipes,Ablution Facility & VIPs,C&SW contractor,Yes,I0215,143,B1,0.0182227183890222,2.21868103715417e-06
223,Umlazi - D - DX13 (Mhlanga Forest),DX13 (Mhlanga Forest),Siyaya Street,88,Umlazi - D,"-29,9700614185174","30,8952454920001",Southern,2 standpipes and on-yard taps,Pit Privies,C&SW contractor,Yes,I0227,28,B1,0.00685170537625649,4.28245132600318e-07
224,Qhiph'Khowe,Ezimbokodweni,Wanda Cele Road / 50252 Street,93,Ezimbokodweni / Umbongintwini,"-30,0093955868322","30,9017492219292",Southern,Standpipes,TBC,C&SW contractor,Yes,I0164,551,B1,0.0182857630013649,7.84209116259191e-06
225,Umlazi - F - FX3 (Moscow),FX3 (Moscow),Ilembe Crescent / Gugu Dube Street,79,Umlazi - F,"-29,94500836801","30,8990000280582",Southern,1 Standpipe,Pit Privies,C&SW contractor,Yes,I0243,139,A,0.0242727229824386,1.57761125936252e-06
226,Umlazi - V - V2/V3/V 4,V2/V3/V 4,Madiva Mbutho Road,80,Umlazi - V,"-29,9510836309412","30,9224687642139",Southern,Standpipes,VIPs,C&SW contractor,Yes,I0348,258,B1,0.0420182379825619,3.42822504270322e-06
227,Umlazi - B - BX2 (Ezwini),BX2 (Ezwini),Dlangisa Avenue,81,Umlazi - B,"-29,9534177528349","30,9050497807502",Southern,Standpipes,Pit Privies,C&SW contractor,Yes,I0540,54,B2/C,0.0107851263587113,8.37412820355195e-07
228,Unity Avenue, ,Lenny Naidu Drive / Unity Avenue,69,Bayview,"-29,9279833537897","30,9099283841298",Southern,"Ablution facility taps, Water reticulation system installed",Ablution Facility,C&SW contractor,Yes,I0385,956,B2,0.0191771643287537,9.13592017625232e-06
229,Savanha Place, ,Ntuli Road,74,Lamontville,"-29,9484338991772","30,9394867557501",Southern,Water Tanks,TBC,C&SW contractor,Yes,I0823,11,C,0.00307938724558064,1.29049118063317e-07
230,Umlazi - D - BX 4 / B X 7 (Ethenisini),BX 4 / B X 7 (Ethenisini),Road no 222 / Fred Gwala Close,88,Umlazi - B / Umlazi - D,"-29,9648788247961","30,9043435135002",Southern,Ablution Facility Taps & Standpipes,Ablution Facility,C&SW contractor,Yes,I0225,66,B1,0.01320863840476,8.96474443785005e-07
231,Umlazi - B - B10  Lusaka Overspill,B10  Lusaka Overspill,Majubeni Groove / Masijabule Lane,81/80,Umlazi - B,"-29,9529060321171","30,9075144867567",Southern,Ablution Facility Taps & Standpipes,Ablution Facility,C&SW contractor,Yes,I0836,215,B2,0.0191885293477108,3.09133929244917e-06
232,Umlazi - C - CX2 (Egqumeni),CX2 (Egqumeni),Phumzile Circle,81,Umlazi - C,"-29,951569397822","30,9043553940001",Southern,Ablution Facility Taps & Standpipes,Ablution Facility,C&SW contractor,Yes,I0223,64,A,0.0106252766321991,4.8202075691559e-07
233,Umlazi - E - E2 (Egoli),E2 (Egoli),Guerilla Road / 107877 Street,80,Umlazi - E,"-29,9522326712816","30,9171185925001",Southern,Standpipes,VIPs,C&SW contractor,Yes,I0231,80,A,0.0112586607514625,1.14403472127066e-06
234,Umlazi - F - F6 (Limpopo),"F6 (Limpopo), Umlazi - Part 2",Dinuzulu Road / Cyril Zulu Grove,79,Umlazi - F,"-29,9416887848004","30,8947657723033",Southern,TBC,VIPs,C&SW contractor,Yes,I0241,117,A,0.0181452407641378,1.22982884644679e-06
235,Umlazi - Q - Q4 / Q5,Q4 / Q5,Ugagane Street / Banana Road /,87,Umlazi - Q,"-29,9850120999113","30,8982504375001",Southern,Yes,VIPs,C&SW contractor,Yes,I0317,257,B1,0.0235242667238737,2.97183506942278e-06
236,Ngcamu,Lamontville MEC,Ngcamu Place,74,Lamontville,"-29,947707608623","30,9296073213204",Southern,Ablution Facility Taps,Ablution Facility,C&SW contractor,Yes,I0147,51,B1,0.00702368135400544,7.17063214875898e-07
237,Ekuthuleni 2 A (Lillian Ngoyi),Lamontville MEC,Simelane Place/ Sibiya Place / Makhathini Avenue,74,Lamontville,"-29,9463028314559","30,9292050802501",Southern,Standpipes,Pit Privies,C&SW contractor,Yes,I0056,43,B1,0.00872832396958754,6.45068484297906e-07
238,Umlazi --B 2088, ,No road Name,88,Umlazi --B,"-29,9655102511509","30,9022703452237",Southern,TBC,TBC,C&SW contractor,TBC,I0887,24,B1,0.00175454685154111,1.22606454313405e-07
239,Walter Sisulu,None,Kaula Road,75/74,Lamontville,"-29,942188248508","30,9456782592501",Southern,2 standpipes,Pit Privies,C&SW contractor,Yes_High mast,I0365,31,A,0.00453556130237431,2.04050860596618e-07
240,Umlazi - W - DX1 overspill,Umlazi - W,Zwe Madlala / 237 str,82,Umlazi - W,"-29,9630017342877","30,8982524026777",Southern,Ablution Facility Taps,Ablution Facility,C&SW contractor,TBC,I0890,29,B1,0.00317745429270504,1.58748531267542e-07
241,Ekuthuleni 3, ,Hall Drive / Malinga Road,75,Lamontville,"-29,9505245213368","30,941764116463",Southern,No Water Supply,Pit Privies,C&SW contractor,TBC,I0904,52,B1,0.00255056444576501,2.95227575532347e-07
242,Ntwasa / Mpanza Roads, ,Mhlongo Road / Mpanza Road,74,Lamontville,"-29,9405828543997","30,9414203517501",Southern,TBC,Pit Privies,C&SW contractor,Planned,I0586,50,B2,0.00595596318406213,2.65697416763974e-07
243,Mhlongo / Gambushe Roads, ,Magalela Place,74,Lamontville,"-29,9401833160154","30,9392575981057",Southern,TBC,Ablution facility & Pit privies,C&SW contractor,Planned,I0587,5,B2,0.00115731016700076,2.60299065674311e-08
244,Ekuthuleni 2B (Raymond Mhlaba),"Lamontville MEC, Ngcamu",Ngcamu Place,74,Lamontville,"-29,9465541609595","30,9314150154751",Southern,Ablution Facility Taps,Ablution Facility,C&SW contractor,Yes,I0525,272,B2/B1,0.0206901512959174,3.08451023602932e-06
245,DSW Tip Site (Tara Road), ,Tara Road,66,Van Riebeeck Park,"-29,9269726693291","31,0028524295386",Southern,Ablution Facility Taps & 1 Standpipe,Ablution Facility,C&SW contractor,Planned,I0804,33,B2,0.00235072260039703,1.79148685107813e-07
246,Buldana Road, ,Buldana Road,68,Merewent,"-29,9553844459358","30,9886306188054",Southern,Standpipes,TBC,C&SW contractor,Planned,I0815,16,B2,0.00320501568640648,1.50886876938907e-07
247,Manyaleni, ,Lenny Naidu Drive,69,Bayview,"-29,9273672387635","30,9128691286268",Southern,Ablution Facility Taps & Standpipes,Ablution Facility,C&SW contractor,Yes,I0124,268,B1,0.00565668657502383,1.32043422374993e-06
248,Mathe, ,Mate Place,74,Lamontville,"-29,9414425892428","30,9294085987511",Southern,Standpipes,Pit Privies,C&SW contractor,Planned,I0127,31,B1,0.00552311866763885,3.61167901889987e-07
249,Ngqayizivele,Ngqayizivele,Njabulo Zamisa Street,88,Umlazi - D,"-29,9627573804422","30,912162741",Southern,TBC,TBC,C&SW contractor,Planned,I0840,36,B2,0.00433546267972261,1.76905976898889e-07
250,Umlazi - B - Mfene City (BX4/BX7),"Thenisini Overspill, eThensini",Baphelabantu Street,88,Umlazi - B / Umlazi - D,"-29,9656838714833","30,9013295546521",Southern,Ablution Facility Taps and Illegal Taps,Ablution Facility,C&SW contractor,Yes,I0130,49,B1,0.00401719989265598,2.76059243516806e-07
251,Lucky Lushaba, ,Lucky Lushaba/Gybon Mpanza,80,Umlazi - A,"-29,9588220952063","30,9141448408052",Southern,TBC,TBC,C&SW contractor,TBC,I0866,23,B1,0.00204504153502262,1.5480802103975e-07
252,Madlala Settlement,Radebe Str,Radebe Str / Matwebula Road,74,Lamontville,"-29,9450948790461","30,9346866275001",Southern,TBC,TBC,C&SW contractor,TBC,I0856,1483,B2,0.045632035261529,1.38605471305202e-05
253,Barcelona 2, ,Sihlahla Road,75,Lamontville,"-29,9481497961538","30,9470761005001",Southern,TBC,TBC,C&SW contractor,TBC,I0384,57,B1,0.00502986966936972,3.13076375675742e-07
254,Ntuli-Mathwebula settlement, ,Ntuli Street,74,Lamontville,"-29,9469470216894","30,9376255570001",Western,TBC,TBC,C&SW contractor,TBC,I0886,1015,C,0.0361815995430994,8.29896057650873e-06
255,Mhlongo Msimango, ,Mhlongo Road,74,Lamontville,"-29,9390338041003","30,943285208",Southern,No water Supply,Pit Privies,C&SW contractor,TBC,I0901,18,B1,0.00187998452076594,6.15935212896353e-08
256,Mfeka Place 2, ,Usiba Walk,74,Lamontville,"-29,9450473462128","30,9415044965001",Southern,TBC,TBC,C&SW contractor,TBC,I0907,46,B1,0.00422308359326964,2.06302308060359e-07
257,Umlazi - E - EX15 (Buyani),EX15 (Buyani),Sbusiso Mdakane Drive,81,Umlazi - E,"-29,9481472321834","30,9092786138399",Southern,Ablution Facility Taps & 1 Standpipe,Ablution Facility,C&SW contractor,Yes,I0236,262,B1,0.00810960623806227,1.7846851331512e-06
258,Umlazi - E - EX11 (Ekuthembeni),EX11 (Ekuthembeni),Maphikelela Road / Qabane Drive,81,Umlazi - E,"-29,9510565768894","30,9101174087579",Southern,Ablution Facility Taps,Ablution Facility,C&SW contractor,Yes,I0234,58,B1,0.0078057451453007,7.11087160609579e-07
259,Umlazi - E - EX9 / E16 (Thandanani),EX9 / E16 (Thandanani),Josia Mapholoba Road,80,Umlazi - E,"-29,9442880052062","30,9247396225001",Southern,Ablution Facility Taps & Standpipes,Ablution Facility,C&SW contractor,Yes,I0240,254,B1,0.0222860156054955,4.0993837275735e-06
260,Umlazi - S - S1/2 (Emhlabeni),S1/2 (Emhlabeni),Griffiths Mxenge Highway,88,Umlazi - S,"-29,9641232039947","30,9129588830002",Southern,Ablution Facility Taps & 7 Standpipe,Ablution Facility,C&SW contractor,Yes,I0326,2978,B1,0.0501815220080566,2.53375886842401e-05
261,Umlazi - V - V9/V6,Mega Village,Mshiyeni Road,76/74,Umlazi - V,"-29,9505687967527","30,9389695265001",Southern,Ablution Facility Taps & 1 Standpipe,Ablution Facility,C&SW contractor,Yes,I0353,1154,B1,0.0335597418621818,7.12381303097697e-06
262,Umlazi - V - Peace Valley (V7),Peace Valley (V7),Prince Mcwayizeni Drive / Umthente Drive,76,Umlazi - V,"-29,9641464349425","30,9339370157501",Southern,Ablution Facility Taps,Ablution Facility,C&SW contractor,Yes,I0344,2293,B1,0.0384403219616027,1.23467410001985e-05
263,Umlazi - V - Ezimeleni - Umlazi V8,Ezimeleni - Umlazi - V8,Prince Mcwayizeni Drive,76/90,Umlazi - V,"-29,9667710206277","30,9284448813551",Southern,Ablution Facility Taps & 1 Standpipe,Ablution Facility & VIPs,C&SW contractor,Yes,I0343,1436,B1,0.0437486329675869,2.03741736576635e-05
264,Umlazi - D - DX2 (Emseni),DX2 (Emseni),Mnyandu Thokozani Road,88,Umlazi - D,"-29,9660634236167","30,8997737714802",Southern,Ablution Facility Taps & 1 Standpipe,Ablution Facility,C&SW contractor,Yes,I0229,68,B1,0.00670293374193154,6.43099170007147e-07
265,Umlazi - D - DX18,DX18,Asijiki Road / Silwelinkululeko Rd,87,Umlazi - D,"-29,9689475923615","30,9053752264496",Southern,Ablution Facility Taps & Standpipes,Ablution Facility,C&SW contractor,Planned,I0228,79,B1,0.0060680025095095,6.53209197268069e-07
266,Umlazi - T - T5,T5,1729 Road,89,Umlazi - T,"-29,9781794840501","30,9022126860001",Southern,Ablution Facility Taps,Ablution Facility,C&SW contractor,Planned,I0332,185,B1,0.00988463589720836,1.65212621076288e-06
267,Umlazi - U - UX2 (Tropica),UX2 (Tropica),Maurice Gumede Drive / Isidingo Grove,86,Umlazi - U,"-29,9870417931118","30,8958591407501",Southern,Ablution Facility Taps,Ablution Facility,C&SW contractor,Yes,I0340,407,B1,0.0232423936095125,4.90758371079268e-06
268,Umlazi - U - UX3 (Qhiph'Khowe),UX3 (Qhiph'Khowe),Mkhathali Drive / Maurice Gumede Drive / Balungile Grove,86,Umlazi - U,"-29,9951093850614","30,8858429810388",Southern,Ablution Facility Taps,Ablution Facility,C&SW contractor,Yes,I0341,106,B1,0.0135118516327218,1.71909840584964e-06
269,Umlazi - U - ZX16 (Phalamende),ZX16 (Phalamende),Sbu Magwanyane Drive / Mkhathali Drive,86,Umlazi - U,"-29,9970347621657","30,8855788600476",Southern,Ablution Facility Taps & 1 Standpipe,Ablution Facility,C&SW contractor,Yes,I0342,144,B1,0.0183560252763517,2.40131009946797e-06
270,Umlazi - F - F9,F9,David Sponono Gasa Road / Sdumo Mathe Road,79,Umlazi - F,"-29,946525568998","30,89054402025",Southern,TBC,Pit Privies,C&SW contractor,Yes,I0242,30,A,0.00436200560036154,2.38317903437776e-07
271,Umlazi - V - V10 (Shayamoya),V10 (Shayamoya),Zinkawini Road / 122175 Street,80,Umlazi - A / Umlazi - V,"-29,9538551777978","30,9200309600001",Southern,Ablution Facility Taps & Standpipes,Ablution facility & VIP,C&SW contractor,Yes,I0347,76,B1,0.0116819700473467,1.14682914375094e-06
272,Umlazi - Q - Q8/9/10,"Umlazi - Part 2 - Q8, Q9, Q10",Mayibuye Drive / Msilinga Street,87/86,Umlazi - Q,"-29,9860807038518","30,8919948720001",Southern,Standpipes,VIPs,C&SW contractor,Yes,I0318,167,A,0.0225445654849326,2.57667294934167e-06
273,Umlazi - D - D3 (Ekuthuleni),D3 (Ekuthuleni),Masakhane Street,88,Umlazi - D,"-29,9659204343761","30,9090553760656",Southern,Ablution Facility Taps & Standpipes,Ablution facility & Pit Privies,C&SW contractor,Yes,I0226,29,B1,0.00331490108550009,2.32376622254806e-07
274,Umlazi - E - EX14 (Jabulani), ,Vukayibambe Street /  Imfongosi Drive,81,Umlazi - E / Umlazi - C / Umlazi - B,"-29,9528132966691","30,9086492557501",Southern,Ablution Facility Taps,Ablution Facility,C&SW contractor,Yes,I0235,121,B1,0.0208657078513234,2.38010805376743e-06
275,Umlazi - B - BX5,BX5,Street No. 224 / Street No. 226,80/88,Umlazi - B,"-29,9614507510567","30,9066651365001",Southern,Ablution Facility Taps & Standpipes,Ablution Facility,C&SW contractor,Yes,I0216,67,B1,0.00912429262613694,8.04201702355972e-07
276,Umlazi - F - FX3 (Phola Park),FX3 (Phola Park),Cyril Zulu Grove / Ilembe Crescent,79,Umlazi - F,"-29,941024526941","30,8999257327501",Southern,TBC,Pit Privies,C&SW contractor,Yes,I0244,112,A,0.0167014774287256,1.3815690626647e-06
277,Umlazi - F - F9 (Phila),F9 (Phila),Ntonto Mkhize Grove,81,Umlazi - F,"-29,9532435111319","30,8940559785001",Southern,TBC,Pit Privies,C&SW contractor,Yes,I0538,8,B2,0.00180958074026214,4.9122584910349e-08
278,Umlazi - U - U9 (Zamani),U9 (Zamani),Sbu Mangwanyane Drive / Kwezincane Circle,89,Umlazi - U / Malukazi,"-29,9916236672887","30,9004310890001",Southern,Ablution Facility Taps & 3 Standpipe,Ablution Facility,C&SW contractor,Yes,I0339,565,B1,0.023977500361876,9.36558679635994e-06
279,Umlazi - V - V10,V10,Peace Road / Sbusiso Mdakane Drive,80,Umlazi - A,"-29,9564786180607","30,920189931",Southern,Ablution Facility Taps,Ablution Facilty,C&SW contractor,Planned,I0346,63,B1,0.00648487831964503,8.74983710518272e-07
280,Umlazi - D - DX5 (Gospel City),DX5 (Gospel City),Hambakahle Mkhonto Road,87,Umlazi - D,"-29,9673265173325","30,9043669562501",Southern,1 Standpipe,TBC,C&SW contractor,Yes,I0822,53,C,0.00657031222322786,5.61053605313185e-07
281,Umlazi - F - F3 Ext,F3,Khobo Makhobo Place / Zanele Msani Road,81,Umlazi - F,"-29,9508128254628","30,8925759255",Southern,TBC,Pit Privies,C&SW contractor,Yes,I0825,24,B2,0.00231481572844196,1.0506277666026e-07
282,Umlazi - E - EX4 (Thokoza),"EX4 (Thokoza), Fongosi  Dev",109155 Street,80,Umlazi - E,"-29,9520224061283","30,9207310715026",Southern,Standpipes,VIPs,C&SW contractor,Yes,I0238,117,B1,0.00656748536577217,9.43846597609156e-07
283,Umlazi - T - KwaMnyandu (13),"Kwamnyandu (13), KwaMnyandu Station",1603 Street,89,Umlazi - T,"-29,9735013470817","30,9031311573197",Southern,Ablution Facility Taps,Ablution Facility,C&SW contractor,Planned,I0329,74,B1,0.00372711711160494,5.34469873285632e-07
284,Umlazi - T - KwaMnyandu (12),"Kwamnyandu (12), KwaMnyandu Station",1603 Street,89,Umlazi - T,"-29,974106971908","30,9042914855643",Southern,TBC,TBC,C&SW contractor,Planned,I0328,85,B1,0.00418293967359685,5.5002186746489e-07
285,Umlazi - E,Maphumulo Gwala,Guerilla,80,Umlazi - E,"-29,9496327572758","30,9159154760001",Southern,Ablution Facility Taps & Standpipe,Ablution Facility,C&SW contractor,Yes,I0865,27,B2,0.00381865096502931,2.2656496135201e-07
286,Umlazi - Q - QX1/QX5,Umlazi - - QX1/QX5,107938 Street,87,Umlazi - Q,"-29,9851040129674","30,8965308840001",Southern,Ablution Facility Taps & Standpipes,Ablution Facility,C&SW contractor,Yes,I0319,41,A,0.00585935092834513,4.29987756823489e-07
287,Umlazi - E - EX2,Umlazi - Part 3 - EX2,Themba Thabethe Road,80,Umlazi - E,"-29,9393714389804","30,9168240755002",Southern,Standpipes,VIPs,C&SW contractor,Yes,I0237,318,A,0.0332371243723985,5.72913454135859e-06
288,Umlazi - W - WX1 (CC Siyabusa),WX1 (CC Siyabusa),Mafumbuka Avenue,82,Umlazi - W,"-29,9534894609911","30,8979478740001",Southern,TBC,Pit Privies,C&SW contractor,Yes,I0350,49,A,0.00636569882701128,4.68329466498955e-07
289,Umlazi - Q - QX1/QX5 overspill,Umlazi - - QX1/QX5 overspill,107939 str,87,Umlazi - Q,"-29,9867443482275","30,8975164949609",Southern,TBC,TBC,C&SW contractor,TBC,I0870,14,B1/B2,0.00149368035484161,6.3569264121687e-08
290,Umlazi - U - U8 (Ematayiteleni),U8 (Ematayiteleni),Ntando Avenue,86,Umlazi - U,"-29,9891520435995","30,8996229364741",Southern,Yes,VIPs,C&SW contractor,Yes,I0338,4,B1,0.000819364204861576,2.46155080555471e-08
291,Umlazi - U - U3,U3,Principal Avenue / Mngana Walk,86,Umlazi - U,"-29,9903750177943","30,8950072482501",Southern,3 standpipes,VIPs,C&SW contractor,Yes,I0337,26,A,0.00687033505542034,2.28965748906007e-07
292,Investigate Umlazi - C - CX2 overspill,Egqumeni,Mdakane Ave,79,Umlazi - E,"-29,9438682571234","30,9025831895001",Southern,TBC,TBC,C&SW contractor,TBC,I0878,142,B2,0.0170711881758621,2.01275640698531e-06
293,Umlazi - Q - Q1 / Q2 / Q3,Q1 / Q2 / Q3,Mango Close,87,Umlazi - Q,"-29,9785856088409","30,900285831782",Southern,Yes,VIPs,C&SW contractor,Yes,I0314,137,B1,0.00737606595695451,2.34402108805869e-06
294,Umlazi - Q - Q3,Q3,Umdlebe Road / Mnyezane Street,87,Umlazi - Q / Umlazi - T,"-29,984605150911","30,9008532460001",Southern,TBC,TBC,C&SW contractor,Planned,I0316,225,B1,0.0274953223852429,2.01115917079902e-06
295,Umlazi - C - C2 (Zimbabwe),C2 (Zimbabwe),Rasta Hadebe Lane,81,Umlazi - C,"-29,952216756921","30,8978920510001",Southern,Ablution Facility Taps & Standpipes,Ablution Facility,C&SW contractor,Yes,I0221,166,B1,0.00730073527398687,1.03262578854128e-06
296,Umlazi - C - CX1 (New Village),CX1 (New Village),Babakhulu Avenue / Dlangisa Road,81,Umlazi - C,"-29,9527232898747","30,9034889659551",Southern,Ablution Facility Taps & Standpipes,Ablution Facility,C&SW contractor,Yes,I0222,376,B1,0.00919635629045642,3.45942272761592e-06
297,Umlazi - E - E5 (Ekuthuleni),E5 (Ekuthuleni),Guerilla Road / Sbusiso Mdakane Drive,80,Umlazi - E,"-29,9509577003168","30,9174042755001",Southern,Ablution Facility Taps,Ablution Facility,C&SW contractor,Yes,I0232,130,B1,0.0124261486794917,1.33961270201042e-06
298,Umlazi - E - EX7 (Ethopia),EX7 (Ethopia),Linda Mnomiya Circle,80,Umlazi - E,"-29,9475485618087","30,9231372055002",Southern,Ablution Facility Taps,Ablution Facility,C&SW contractor,Yes,I0239,565,B1,0.0349094712387196,9.22123286148924e-06
299,Umlazi - S - S3 (Zakheleni),S3 (Zakheleni),Mangosuthu Highway,88,Umlazi - S,"-29,970858999567","30,9164023182501",Southern,Ablution Facility Taps & 2 Standpipe,Ablution facility,C&SW contractor,Yes,I0327,665,B1,0.0254905545927951,8.56134165943561e-06
300,Umlazi - V - V5,V5,Emakholweni Circle / Ndukenhle Circle / Madisa Circle,74/76/80,Umlazi - V,"-29,9538156342065","30,9287630505001",Southern,Ablution Facility Taps,Ablution Facility & Pit Privies,C&SW contractor,Yes,I0349,1055,B1,0.0339936987419066,1.25414032541052e-05
301,Umlazi - V - V1,V1,Veni Yeni Road / Mgobhozi Road,88,Umlazi - V,"-29,9591095787683","30,9203807630211",Southern,Ablution Facility Taps,Ablution Facility,C&SW contractor,Planned,I0345,190,B1,0.00929324586375574,1.02720700361494e-06
302,Umlazi - T - Uganda,Uganda,Inwabi Road,90,Umlazi - T / Isipingo,"-29,9779270358525","30,9180819916463",Southern,Ablution Facility Taps & Standpipes,Ablution Facility,C&SW contractor,Planned,I0333,770,B1,0.0233956605644526,6.41999406051275e-06
303,Umlazi - T - T1/2,T1/2,1722 Road / 1726 Road,89/87,Umlazi - T,"-29,977457088601","30,9018900315001",Southern,Ablution Facility Taps,Ablution Facility,C&SW contractor,Planned,I0330,1057,B1,0.0217273005416575,6.18635765646526e-06
304,Umlazi - T - T4,T4,1729 Road,89,Umlazi - T,"-29,975727055029","30,9046709925001",Southern,Ablution Facility Taps,Ablution Facility,C&SW contractor,Planned,I0331,200,B1,0.011502243688577,1.80733688970073e-06
305,Umlazi - E - EX1 (Zilungiseni),"EX1 (Zilungiseni), Umlazi - Part 3",Sbusiso Mdakane Drive,80/81,Umlazi - E,"-29,9436351540634","30,9142924307051",Southern,Yes,VIPs,C&SW contractor,Yes,I0233,564,B1,0.0389379648961455,1.65651149097908e-05
306,Umlazi - B - BX5 (Happy City),BX5 (Happy City),Street No. 223,80/88,Umlazi - B,"-29,9595766842254","30,9097428175",Southern,Ablution Facility Taps & Standpipes,Ablution Facility,C&SW contractor,Yes,I0217,72,B1,0.00746522576060653,7.14399400635667e-07
307,Umlazi - E - C6 (Gugulethu),C6 (Gugulethu),Sibusiso Mdakane Drive,81,Umlazi - E,"-29,9465782923337","30,9052899732501",Southern,Ablution Facility Taps & Standpipes,Ablution facility & Pit Privies,C&SW contractor,Yes,I0230,67,A,0.00976507280606018,9.57640733021479e-07
308,Dakota Beach, ,Ernest Clockie Road,90,Isipingo Beach,"-30,004221498923","30,9403395800001",Southern,Ablution Facility Taps & Standpipes,Ablution Facility,C&SW contractor,Yes,I0704,1240,B2/C,0.0167102044398246,4.11624781408332e-06
309,Malukazi (Lower), ,Sbu Magwanyane Road,89/90,Malukazi,"-29,9979792858623","30,9038072459253",Southern,Ablution Facility Taps & Standpipes,Ablution Facility & Pit Privies,C&SW contractor,Yes,I0122,7206,B1,0.0758673448113543,8.39307580730576e-05
310,Malukazi (Upper), ,Ithambo Avenue,89/86,Malukazi,"-30,0017349245995","30,8953090059747",Southern,Ablution Facility Taps,Ablution Facility,C&SW contractor,Yes,I0123,1906,B1,0.118035572020817,6.14688745173636e-05
311,Lotus Park Settlement, ,Silvergull,89/90,Lotus Park,"-30,00442356731","30,9065468496906",Southern,TBC,TBC,C&SW contractor,TBC,I0853,207,B2,0.00645965036466124,1.63517058873954e-06
312,Pasadena Crescent, ,Pasadena Crescent,69,Bayview,"-29,929444450457","30,9114794592501",Southern,Standpipe,VIP Toilets,C&SW contractor,TBC,I0915,34,B1,0.00414286931483535,1.92767950893638e-07
313,Horseshoe road informal, ,Horseshoe road,32,Clairwood,"-29,9199966663165","30,9849603382501",Southern,Standpipe and exposed waterpipe,Pit Privies,C&SW contractor,TBC,I0917,51,B2,0.00417065815133261,2.34083071916825e-07
314,Special Case informal, ,Lenny Naidu Drive,69,Bayview,"-29,9248830551707","30,9107004329076",Southern,Ablution Facility Taps,Ablution Facility,C&SW contractor,TBC,I0919,21,B2,0.00135402752840946,8.53234623337919e-08
315,Tshunu, ,South Coast Road,74,Mobeni,"-29,9547121979641","30,945800589",Southern,No Water Supply,No Sanitation Facilities,C&SW contractor,TBC,I0902,45,C,0.00292225742806575,1.28428426551118e-07
316,Umlazi - D - DX10,DX10,Griffiths Mxenge / Hambakahle Mkhonto/ Sbonakaliso Mchunu,88,Umlazi - D,"-29,9689454456023","30,9001394527501",Southern,Ablution Facility Taps & Standpipes,Ablution facility & Pit Privies,C&SW contractor,Yes,I0821,64,B2,0.013815689235236,7.20414680714675e-07
317,Molokohla, ,Twenty First Avenue,92,Clermont,"-29,8025166675774","30,9108454395002",Western,Ablution Facility Taps & Standpipes,Ablution Facility,C&SW contractor,Yes,I0526,134,B2,0.0112631100014186,2.76715132510033e-06
318,Congo, ,99551 Street,9,Upper Molweni,"-29,7445333658684","30,8751153047234",Western,Standpipes,VIPs,C&SW contractor,Yes,I0036,879,B1,0.0310995632637947,3.75757869271295e-05
319,Dark City,Molweni Upper,Inanda Road,9,Upper Molweni,"-29,740410103555","30,8819903577831",Western,Standpipes,Pit Privies,C&SW contractor,Yes,I0041,1142,B1,0.0346992117307168,6.53200050384615e-05
320,KwaMageza, ,Inanda Road,9,Upper Molweni,"-29,7336388705331","30,887501511",Western,Standpipes,Pit Privies,C&SW contractor,Yes,I0104,515,B1,0.0332087547837807,3.04302566621913e-05
321,Molweni (Romani 1), ,Ikhwezi Road / Bhalito Road,9,Upper Molweni / Lower Molweni,"-29,7277660188042","30,8904616578723",Western,Standpipes,VIPs,C&SW contractor,Yes,I0133,1967,B1,0.084627478867469,0.000143151898768488
322,Emadimeni, ,99136 Street,9,Lower Molweni,"-29,716844062502","30,8516295340965",Western,Standpipes,Pit Privies,C&SW contractor,Yes,I0058,877,B1,0.0436777780994283,3.62788185268171e-05
323,Embo (new), ,Nqotho Road,8,Mkholombe,"-29,7524587377843","30,7672365325",Western,TBC,Pit Privies,C&SW contractor,Yes,I0062,689,B1,0.0383110247321917,2.17430960079267e-05
324,Protea, ,Benares Road / Diza Road,103/8,Bothas Hill / Mkholombe,"-29,7523130968912","30,7559607381204",Western,TBC,Pit Privies,C&SW contractor,Yes,I0161,1169,B1,0.0382748531416474,4.07856657945531e-05
325,Thirthy Second, ,Thirthy Second Avenue / P Tshabalala Avenue,92,Clermont,"-29,8033813002718","30,9009221610832",Western,Ablution Facility Taps & Standpipes,Ablution Facility & Pit Privies,C&SW contractor,Yes,I0198,86,B1,0.00382459310705538,6.01909875428695e-07
326,Sub 5 (BA), ,Wyebank Road / Khululeka Drive,19,KwaDabeka,"-29,7784010712199","30,8956650465001",Western,Ablution Facility Taps,Ablution Facility,C&SW contractor,Yes,I0197,61,B1,0.00501179419756069,7.79488342173447e-07
327,KwaNogxaza, ,99598 Street,9,Lower Molweni,"-29,7448641644015","30,8645521185001",Western,Standpipes,Pit Privies,C&SW contractor,Yes,I0109,299,B1,0.048787486708285,2.69773329547123e-05
328,Ekuthuleni, ,Ndosi Place / Bhekilanga Place / Mthimkhulu Avenue,19,Wyebank,"-29,7666648428471","30,8772967278634",Western,Standpipes,VIPs,C&SW contractor,Yes,I0054,755,B1,0.0424452938138391,1.60826997212492e-05
329,Josilina (Imvuzane) 1 of 4, ,Zazi Road / First Street,22,Clermont,"-29,7798960681641","30,8931078787531",Western,Ablution Facility Taps,Ablution Facilty,C&SW contractor,Planned,I0094,55,C,0.00288873338615691,3.81603329995251e-07
330,Bend, ,Clermont Road / Bend Street,92,Clermont Umngeni,"-29,7886088377725","30,9136819125687",Western,Ablution Facility Taps,Ablution Facility,C&SW contractor,Planned,I0022,42,B1,0.00367933351935006,7.78261387927633e-07
331,B22 (Umgwaqo Ongayindawo), ,Clermont Road,22/92,Clermont Emngeni,"-29,7855639393355","30,9132838222502",Western,Ablution Facility Taps,Ablution Facility,C&SW contractor,Planned,I0019,103,B1,0.0161911236788262,2.21027046921411e-06
332,Kloof (Fannin Rd), ,Fannin Road,19,Wyebank,"-29,7689899174796","30,8714158276277",Western,TBC,TBC,C&SW contractor,TBC,I0884,277,B2,0.0121344171293427,2.81379247422595e-06
333,Clermont sites, ,P TSHABALALA AVE,92 / 22,Clermont,"-29,8025442759224","30,900382858342",Western,Standpipes,Pit Privies,C&SW contractor,TBC,I0897,185,B1/B2,0.0198672661571213,2.67100097725804e-06
334,Embo Spillover,John Foster,Mkhize Rd,8,Luke Bailes Farm / Mkholombe,"-29,7458061145342","30,7858747217501",Western,Standpipes / Individual Household Connection,Pit Privies,C&SW contractor,TBC,I0896,202,B1,0.0267293905945806,8.77006667338327e-06
335,Bend 2, ,Bend Street,92,Clermont Emngeni,"-29,7880922867672","30,9145439482502",Western,TBC,TBC,C&SW contractor,TBC,I0900,27,B2,0.00614887569900157,5.68617625593513e-07
336,Chola Phansi phase 1 & 2 extension, ,Forth Ave,22,Clermont,"-29,7829528771569","30,8955903970001",Western,TBC,TBC,C&SW contractor,TBC,I0910,42,B2/C,0.00371866158114883,3.44637121721586e-07
337,Chola Phansi phase 1 & 2, ,Forth Ave,22,Clermont,"-29,7826642441689","30,8946709407675",Western,Standpipes,Pit Privies,C&SW contractor,TBC,I0861,59,B2,0.00363265247742767,2.73986320623745e-07
338,Clermont North / KwaDabeka, ,Zazi Rd,19/21/22,Clermont / KwaDabeka,"-29,7782981098091","30,8918242796362",Western,TBC,TBC,C&SW contractor,TBC,I0894,35,B2,0.0206670530373627,2.75655524288522e-06
339,Josilina (Imvuzane) 4 of 4, ,Third Ave / Fourth Street,22,Clermont,"-29,7804649985155","30,8902295180319",Western,TBC,TBC,C&SW contractor,TBC,I0913,21,B2/C,0.0018640324584501,2.11274416921262e-07
340,Josilina (Imvuzane) 3 of 4, ,First Street / Second Street / Third Street / Fourth Ave,22,Clermont,"-29,7810712612438","30,8934302865562",Western,TBC,TBC,C&SW contractor,TBC,I0912,87,B2,0.00495102417238669,1.07461561956541e-06
341,Josilina (Imvuzane) 2 of 4, ,Third Avenue / Zazi Road,22,Clermont,"-29,7804605540929","30,892002490995",Western,TBC,TBC,C&SW contractor,TBC,I0911,23,B2,0.00135487469646155,1.23756022651938e-07
342,Dukezwe, ,33rd Avenue,92,Clermont,"-29,8044085243217","30,89440287875",Western,Ablution Facility Taps,Ablution facility & Pit Privies,C&SW contractor,Yes,I0052,79,B2,0.0099303981296635,1.35098154150772e-06
343,Ezinyosini, ,Thirthy First Avenue,92,Clermont,"-29,8054303805299","30,9043946362501",Western,Ablution Facility Taps & Standpipes,Ablution Facility,C&SW contractor,Yes,I0074,354,B1,0.0237810976677745,9.48240786619327e-06
344,Vezunyawo, ,Thirty Third Avenue / P Tshabalala Avenue,92,Clermont,"-29,80066939354","30,9056999338466",Western,Ablution Facility Taps & Standpipes,Ablution Facility,C&SW contractor,Yes,I0364,107,B1,0.00502552115578787,1.03265785597436e-06
345,Waterfal 1 (Nqethe), ,Ngwele Road,9/8,Waterfall,"-29,7353118444619","30,8090151455001",Western,TBC,Pit Privies,C&SW contractor,Planned,I0705,157,B2,0.0151422347591058,4.80243582170492e-06
346,Fortieth Ave,Clermont Infill,Forteith Avenue,92,Clermont Umngeni,"-29,7978635256269","30,9104687814767",Western,Ablution Facility Taps,Ablution Facility,C&SW contractor,Planned,I0075,48,B1,0.0044918857057958,7.616381680841e-07
347,Gomora, ,Thirthy Third Avenue,92,Clermont Emngeni,"-29,7998903142908","30,9094214224891",Western,Ablution Facility Taps,Ablution Facility,C&SW contractor,Yes,I0080,111,B1,0.0114807152454834,1.91783688392854e-06
348,Kwadebeka 1 A, ,Khululeko Road,22/20/92,KwaDabeka,"-29,7843697838078","30,9080782130002",Western,TBC,TBC,C&SW contractor,Yes,I0102,520,B1,0.043914410278534,1.21709818973517e-05
349,"Emapeleni Project / Shayamoya / Amakrosini
",Emapheleni,Thirty Fourth / Eighteenth Avenues,22,Clermont,"-29,7841455286435","30,9021843025001",Western,Ablution Facility Taps & Standpipes,Ablution Facility & Pit Privies,C&SW contractor,Yes,I0061,1558,A,0.0478068924563558,2.10463679436236e-05
350,Ntshingelana Way,Investigate,Uhuru Drive / Ntshingelana Way,92,KwaDabeka,"-29,7829125377267","30,91089446175",Western,TBC,TBC,C&SW contractor,Yes,I0149,122,B1,0.0316234807022396,4.99162225414576e-06
351,N-Fields,Investigate,Themba Cele Place / Intokomalo Road,20,KwaDabeka,"-29,7742482180031","30,9127482540001",Western,Ablution Facility Taps,Ablution Facility,C&SW contractor,Yes,I0144,207,B1,0.0372017423164589,8.33625457066031e-06
352,Thirteenth Street, ,Thirteenth Street,21,Clermont,"-29,7964919000564","30,892212441",Western,Ablution Facility Taps,Ablution Facility,C&SW contractor,Planned,I0824,30,C,0.00595079936510418,6.36976517237755e-07
353,Twenty Eighth Ave (Emagundaneni/KwaNene), ,Twenty Eight Avenue / P Tshabalala Avenue,92,Clermont,"-29,8038210655611","30,8946520410001",Western,Ablution Facility Taps,Ablution Facility,C&SW contractor,Planned,I0204,236,B2,0.0172068547136135,3.12712386406613e-06
354,Zamokuhle,Kloof phase 1A/B overspill,Wyebank Road / Zamokuhle Road,19,Wyebank,"-29,7767627972606","30,86416011125",Western,Standpipes,Pit Privies,C&SW contractor,Yes,I0374,691,B1,0.0613279033864086,1.48308069747088e-05
355,Unit R North (Sub 5), ,Icena Place,19,Wyebank / KwaDabeka,"-29,7685442105646","30,8907504988109",Western,Individual connections,Pit Privies& water borne sew,C&SW contractor,Yes,I0362,24,B1,0.00435944583526278,7.53670040236858e-07
356,Carlifornia/Ekuthuleni/Bhekilanga, ,California Drive,19,Wyebank,"-29,7649071474112","30,8718975985769",Western,Ablution Facility Taps,Ablution Facility & Pit Privies,C&SW contractor,Yes,I0030,163,B1,0.0163379262653191,3.19668407676312e-06
357,Ebasutwini/Enkundleni Enkulu, ,Thirty Fourth Avenue,22,Clermont,"-29,7864892988401","30,9016792877951",Western,TBC,Pit Privies,C&SW contractor,TBC,I0848,65,B2,0.00429644838738052,6.40850691086572e-07
358,KwaNala, ,Kings Road,22,Clermont,"-29,7886015801073","30,8941553244237",Western,Ablution Facility Taps,Ablution Facility,C&SW contractor,Yes_Shared prepaid meter,I0862,21,B2,0.00124944256591959,9.51885279694076e-08
359,Kloof Ext 15 + Exr 21 ph 3, ,First Avenue / Aloe Avenue,19,Wyebank,"-29,7764865357928","30,8894535270016",Western,Ablution Facility Taps,Ablution Facility,C&SW contractor,Planned,I0097,885,B1,0.017099954083322,6.57126207852368e-06
360,Emapheleni - eZimbelini,eZimbileni,Thirty FourthAvenues,22,Clermont,"-29,7841455286435","30,9021843025001",Western,Ablution Facility Taps & Standpipes,Ablution Facility & Pit Privies,C&SW contractor,Yes,I0061,379,B1,0.0111003313832695,4.27914163806321e-06
361,Pemary Ridge/ Mpolweni, ,Pemary Ridge,23,Reservoir Hills,"-29,7916631896114","30,9436761247409",Western,Ablution Facility Taps & Standpipes,Ablution Facility,C&SW contractor,Yes,I0157,160,B1,0.00665316999725135,1.0372468943433e-06
362,Ensimbini Overspill,Nsimbini Overspill,Velawig Avenue / Nubian Avenue,29,Wiggins - Dunbar,"-29,8542552614293","30,9538943882501",Southern,Ablution Facility Taps & Standpipes,Ablution Facility,C&SW contractor,Planned,I0066,1655,B1,0.0250780275355199,6.45479633976322e-06
363,Constantine Rd,Constantine Rd,Wynebeck / Foreman Rd Ext,25,Clare Hills,"-29,8243705963719","30,9725231675",Northern,TBC,Pit Privies,C&SW contractor,Planned,I0827,673,B2,0.0134145257282688,3.27228415984537e-06
364,Annet Drive,Ezingadini,Annet Drive,23,Reservoir Hills,"-29,7881902227699","30,9318172846614",Western,Ablution Facility Taps & Standpipes,Ablution Facility,C&SW contractor,Planned,I0833,46,B2,0.00287125539632672,3.00919591145239e-07
365,Briardene-Overspill, ,Daffodil Place / Banana Grove,36,Umgeni Park,"-29,8031903886371","31,0145789593683",Northern,Ablution Facility Taps,Ablution Facility,C&SW contractor,Planned,I0026,80,B1,0.00220626306609201,3.01302718223309e-07
366,Foreman Road, ,Foreman Road,25,Clare Hills,"-29,8249655411941","30,9743252235001",Northern,Ablution Facility Taps & 2 Standpipe,Ablution Facility,C&SW contractor,Planned,I0863,1262,B2,0.0108375962398166,2.48095210514175e-06
367,Lacey Road, ,Lacey Road / Randles Road,31,Sydenham,"-29,8317930976676","30,985780989",Northern,Ablution Facility Taps & 1 Standpipe,Ablution Facility,C&SW contractor,Yes,I0524,249,B1,0.007655995161459,1.41078588792305e-06
368,132 Wandbeck rd, ,Wandsbeck Roa,25,Clare Hills,"-29,8214155699309","30,9720585863919",Northern,TBC,Pit Privies,C&SW contractor,TBC,I0885,32,B2,0.00187435710621135,1.90257551980163e-07
369,Indus lane, ,Indus lane / Silver willow road,25,Springfield,"-29,8162532831431","31,0049354010946",Northern,TBC,TBC,C&SW contractor,TBC,I0889,179,B1,0.00377323180357085,6.17576028203087e-07
370,Jadhu Place, ,Jadhu Place,25,Springfield,"-29,8205540475591","31,0013529735396",Northern,"Ablution Facility Taps, 3 standpipes and 2 Washing Basins",Ablution Facility,C&SW contractor,Yes,I0092,590,B1,0.0141490843893638,3.81829262288966e-06
371,Kennedy Road, ,Kennedy Road,25,Clare Hills,"-29,8113704772103","30,9798546858617",Northern,Ablution Facility Taps & 6 Standpipe,Ablution Facility,C&SW contractor,Yes,I0576,2060,B1/C,0.0229992986732371,1.08079921833499e-05
372,Palmiet / Zone 2, ,Palmiet Road,23,Palmiet,"-29,8186586099612","30,9690995091618",Northern,1 Standpipe,Pit privies,C&SW contractor,Yes,I0580,160,B2,0.00385538263097382,6.52588967421423e-07
373,Zone 1 Palmiet, ,Palmiet Road,23,Palmiet,"-29,8209167514523","30,9657879969392",Northern,Ablution Facility Taps & 1 Standpipe,Ablution facility & Pit privies,C&SW contractor,Yes,I0581,795,B2,0.00983978507412245,2.80668981206622e-06
374,L Section Palmiet, ,Palmiet Road,23,Palmiet / Sherwood,"-29,8211997970409","30,9636297292968",Northern,Ablution Facility Taps & 1 Standpipe,Ablution Facility,C&SW contractor,Planned,I0582,255,B2,0.00735989370971606,7.27979405719084e-07
375,Hoffman Place, ,Hoffman Place,25,Springfield,"-29,8251977630417","30,9988401642309",Northern,Ablution Facility Taps & 1 Standpipe,Ablution Facility & flush toilets,C&SW contractor,Planned,I0584,138,B2/C,0.00403889823363529,4.17185921036781e-07
376,Coedmore, ,Unit Avenue,64,Seaview,"-29,9032145235612","30,9572565540001",Southern,TBC,TBC,C&SW contractor,Planned,I0801,90,B2,0.00560440460297067,8.1019288416707e-07
377,Sirdar Road, ,Sirdar Road,32,Clairwood,"-29,9106413516964","30,9822630690669",Southern,Ablution Facility Taps,Ablution Facility,C&SW contractor,Planned,I0803,93,B2,0.00244739725826971,2.77028556915625e-07
378,Matlock Grove, ,Matlock Grove,31,Sparks,"-29,8276824889773","30,9798113781485",Northern,Ablution Facility Taps,Ablution Facility,C&SW contractor,Yes,I0805,53,B2,0.00201449492628909,2.33344950216319e-07
379,Ekuthuleni (Sea View),None,Solomon Mahlangu Highway,65,Seaview / Bellair,"-29,8930143213828","30,9673700863966",Southern,TBC,TBC,C&SW contractor,Planned,I0810,25,B2,0.00255415176721684,2.91649520668183e-07
380,Kenville Village (NCP), ,Sea Cow Lake Rd,34,Briardene,"-29,8078060460304","31,0090720156603",Northern,Ablution Facility Taps,Ablution Facility,C&SW contractor,Planned,I0820,142,B2,0.00463207449934891,7.25308519634585e-07
381,Sir Kumar Reddi Rd, ,Sir Kumar Reddi Road,32,Clairwood,"-29,9166929466761","30,9825133986308",Southern,TBC,TBC,C&SW contractor,Planned,I0828,61,B2,0.00218907198839589,1.87868120176471e-07
382,Ratcliffe Drive, ,Ratcliffe Drive,65,Bellair,"-29,8854183527828","30,958166724",Southern,1 Standpipe,TBC,C&SW contractor,Planned,I0835,8,B2,0.00230443968317939,1.24647894766294e-07
383,Emgodini, ,Daffodil Place,36,Umgeni Park,"-29,8050974970117","31,0145906940002",Northern,Ablution Facility Taps,Ablution facility & Pit privies,C&SW contractor,Yes,I0063,174,B1,0.00622344403188761,6.29277537732612e-07
384,Sastri Road Settlement, ,Sastri,32,Clairwood,"-29,9133372483584","30,980377467934",Southern,TBC,TBC,C&SW contractor,TBC,I0849,35,B2,0.00130539654011545,1.00774459650582e-07
385,Cherry Road Settlement,New York,Cherry,32,Clairwood,"-29,9146558101352","30,9823915933243",Southern,TBC,TBC,C&SW contractor,TBC,I0850,50,B2,0.00190722172524883,1.99346391213585e-07
386,Burnwood Road overspill, ,Burnwood / Candover Roads,25,Clare Hills / Springfield,"-29,8181429631013","30,986054087858",Northern,Ablution Facility Taps & Standpipes,Ablution Facility,C&SW contractor,Yes,I0854,1404,B2,0.027548304536711,8.31687967692097e-06
387,Cato Crest Greenland,Greenlands,Vusi Mzimela Road,30,Cato Crest / Cato Crest - Open Space,"-29,8576194708854","30,9706432185002",Southern,"Ablution Facility Taps, Standpipes & Ground water tank",Ablution facility & Pit Privies,C&SW contractor,Planned,I0031,302,B1/C,0.00681023485048454,1.21254187207645e-06
388,Dalton Settlement, ,Cnr Dalton and Sydney Road,32,Congella,"-29,8671597397625","31,0047165606388",Southern,TBC,TBC,C&SW contractor,TBC,I0860,97,B2,0.00186919724559565,1.90017121847588e-07
389,Georgehill road, ,Georgehill Road,31,Sparks,"-29,8295820198437","30,9829852863082",Northern,Ablution Facility Taps,Ablution Facility,C&SW contractor,TBC,I0079,61,B1,0.00278897479921164,2.59010169476394e-07
390,Fremantle road, ,Fremantle Road,65,Mount Vernon,"-29,8949099408902","30,9328800642296",Southern,Illegal Connection,Pit Privies,C&SW contractor,No,I0879,42,B2,0.002138793494243,2.01705210583637e-07
391,Cato crest Blinkbonnie Road,"Blinkbonnie Rd, Cato manor",Blinkbonnie Road,30,Bonela,"-29,8458589902937","30,9709526643114",Southern,TBC,TBC,C&SW contractor,TBC,I0881,700,B2,0.0181340157303689,7.96470785433879e-06
392,Cato crest (King Cetshwayo HWY),"Almakad Hospital, Cato Manor",King Cetshwayo HWY,30,Bonela,"-29,841261784618","30,9758521548519",Southern,TBC,TBC,C&SW contractor,TBC,I0882,50,C,0.00544650381235398,4.93422695544273e-07
393,Esontweni,Bellair Fellowship Church,Grace Place,65,Bellair,"-29,8819066594074","30,9603073319862",Southern,1 Standpipe,TBC,C&SW contractor,Planned,I0811,13,B2,0.00165145906780735,9.39307433470731e-08
394,Pemilton Avenue/ Ekuthuleni, ,Pemilton Avenue,23,Reservoir Hills,"-29,7880822634148","30,9348089286631",Western,Ablution Facility Taps & Standpipes,Ablution Facility & Pit Privies,C&SW contractor,Planned,I0594,81,C,0.00975962026680518,8.24622172487915e-07
395,Shannon Drive/Emsahweni, ,Shannon Drive,23,Reservoir Hills,"-29,7940185065799","30,9363953646847",Western,Ablution Facility Taps & Standpipes,Ablution Facility,C&SW contractor,Yes,I0595,309,B2,0.00809514887280048,1.2121543351399e-06
396,Pridley Park / Croft, ,Croft Crescent,23,Reservoir Hills,"-29,803922145684","30,9314824472071",Western,Ablution Facility Taps,Ablution facility & Pit Privies,C&SW contractor,Yes,I0596,94,B2,0.00340757333184498,3.4640488817334e-07
397,Umgudulu,None,Umgudulu Road / M19,23,University of Durban Westville,"-29,8123688855075","30,9460948155001",Western,Ablution Facility Taps & 2 Standpipe,Ablution facility & Pit Privies,C&SW contractor,Planned,I0598,414,C,0.0114195474707547,2.71557956519304e-06
398,New Germany Road,None,New Germany Road,23,Reservoir Hills,"-29,8013199864558","30,9647993786625",Western,Ablution Facility Taps & 2 Standpipe,Ablution Facility,C&SW contractor,Yes,I0602,673,B2,0.010889462321191,2.85520797709753e-06
399,Queensburgh / Huntley Road, ,Huntley Road,63,Malvern,"-29,8756227610506","30,9322942372501",Western,TBC,TBC,C&SW contractor,Planned,I0603,123,B2,0.01829116128514,3.24922038650203e-06
400,Umbilo River Valley,Ngcangcayi,Scott's Place,24,Dawncliffe,"-29,8605994670758","30,9027146404752",Western,TBC,Pit Privies,C&SW contractor,Planned,I0604,16,C,0.0032080767139031,3.05887543579489e-07
401,Dunstan Garden/ Senzokuhle, ,North of M19,23,Reservoir Hills,"-29,8129293163599","30,9371041003383",Western,Standpipes,Pit Privies,C&SW contractor,Planned,I0706,98,B2,0.00552225967743434,5.51652553619739e-07
402,Paradise Valley, ,N3 / Eden Road,18,Sarnia,"-29,8344401619482","30,8828885216435",Western,TBC,TBC,C&SW contractor,Planned,I0830,13,C,0.00143481371893303,1.19644168735109e-07
403,Malvern / Main Road, ,Main Road / Lawson Place / First Avenue,63,Malvern,"-29,8778443142334","30,9170670721879",Western,TBC,TBC,C&SW contractor,TBC,I0916,25,B1/B2,0.00676018750207077,1.5856880011465e-06
404,Mississippi (Amanzimyama Stream),Amanzimnyama River,Inkosi Albert Luthuli Freeway / Amanzimnyaa Stream,32,Clairwood,"-29,9200964103073","30,9799894605001",Southern,TBC,TBC,C&SW contractor,Planned,I0839,54,C,0.00413482888986717,1.49859331753662e-07
405,Dayal Road Informal, ,Dayal road,32,Clairwood,"-29,9172818913049","30,984386959097",Southern,1 standPipe,1 Flushtoilet,C&SW contractor,TBC,I0918,36,C,0.00140031607886852,9.17053542786529e-08
406,Ridgeview informal, ,121515 str,24,Ridgeview,"-29,8770442063924","30,9470324645001",Southern,TBC,TBC,C&SW contractor,TBC,I0898,5,B2,0.000767131529047724,1.11601289889988e-08
407,Electron Road, ,Electron Road,25,Springfield,"-29,816729435332","30,991421229708",Northern,TBC,TBC,C&SW contractor,Planned,I0857,23,B2,0.00236485709739238,1.29426180676422e-07
408,Ratcliffe Drive Ext, ,Ratcliffe Drive,65,Bellair,"-29,8865829438548","30,9562209625001",Southern,Standpipe,Pit latrine,C&SW contractor,TBC,I0899,17,B1,0.00375703240351169,2.3083145546699e-07
409,Umhlathuzana Rd, ,Seaward Road,64,Seaview / Coedmore,"-29,9064267653518","30,9673920245349",Southern,Standpipe,TBC,C&SW contractor,Planned,I0802,35,B2/C,0.00489535575278442,3.45144584578251e-07
410,Ezikrebheni / Umgeni Flood plain,Umgeni River Flood plain,Clare road,25,Sparks,"-29,8045275268607","30,9772236794211",Western,TBC,VIP & Pit Privies,C&SW contractor,Planned,I0819,154,B2,0.00661221998903151,8.11609073885781e-07
411,KwaDukuza,Ekuthuleni (KwaDukuza 1),Solomon Mahlangu Highway,65,Bellair,"-29,8878975960635","30,9648972890001",Southern,TBC,TBC,C&SW contractor,Planned,I0709,60,C,0.00802108141776379,6.40738540504111e-07
412,Foreman Road Ext, ,Foreman Road,25,Clare Hills,"-29,8260303190154","30,9739392125001",Northern,Ablution Facility Taps,Ablution Facility,C&SW contractor,Planned?,I0873,1000,B2,0.0285014036018333,4.46604892196933e-06
413,Ensimbini 2 (Overspill),Nsimbini Overspill,Putney PL / Nubian Ave,29,Wiggins - Dunbar,"-29,8564991089917","30,9529315193385",Southern,TBC,TBC,C&SW contractor,Planned,I0578,1169,B2/C,0.0256658803783447,4.0062957317203e-06
414,Quarry Road West, ,Quarry West Road,23,Palmiet,"-29,8037108876248","30,9677280923972",Northern,Ablution Facility Taps & 2 Standpipe,Ablution Facility & VIP,C&SW contractor,Planned,I0708,739,B2/C,0.0207256368009355,2.65866312445413e-06
415,Jamaica Overspill, ,uthando pl / bhubesi rd,24,Chesterville,"-29,8554869100586","30,941484342627",Southern,TBC,TBC,C&SW contractor,TBC,I0877,640,C,0.0168232693826458,3.41010880461721e-06
416,Puntans Hill,Silverwillow,Ramnaidoo Road / Quarry Road,25/27,Springfield / Morningside,"-29,8155567120444","31,0082821020001",Northern,Ablution Facility Taps & 1 Standpipe,Ablution Facility,C&SW contractor,Yes,I0184,843,B1,0.0174261067732486,4.87978403812162e-06
417,Banana City, ,Westdene Terrace,23,University of Durban-Westville,"-29,8164427758502","30,9542055129088",Northern,"Ablution facility taps, Varsity water & Standpipes",Ablution facility & Pit Privies,C&SW contractor,Yes,I0021,524,B1,0.0141528444283872,4.39005093410299e-06
418,Rainbow Ridge, ,Chiltern Drive / Palmiet Street,23,Palmiet,"-29,8175457434025","30,9601437075551",Northern,Ablution Facility Taps,Ablution Facility,C&SW contractor,Yes,I0165,813,B1,0.0243840920412583,8.51621753427243e-06
419,Old & New Dunbar (Wiggins) Overspill, ,New Dunbar Road / Hlelabar Grove,29/30,Wiggins - Dunbar,"-29,8518716175863","30,9679515112864",Southern,Ablution Facility Taps & 2 Standpipe,Ablution Facility,C&SW contractor,Yes,I0154,2664,B1,0.0836813763746633,1.02039044770373e-05
420,Cascades, ,Hans Dettman Highway,17,St Wendolins,"-29,8696294491891","30,8719045710001",Western,Ablution Facility Taps,Ablution facility & Pit privies,C&SW contractor,Planned,I0600,30,B2,0.00552338775795036,2.00120555685845e-07
421,Dassenhoek - Block A (Mansenseni),Mansenseni,MR559 Route,14,Dassenhoek,"-29,8384094812989","30,780014597549",Western,Standpipes,Planned Ablution Block,C&SW contractor,Yes,I0042,1772,B1,0.0767097001950876,0.000115210825996061
422,KwaMajozi, ,Hansdettman Highway,17,St Wendolins,"-29,8692973831524","30,8707783638635",Western,Ablution Facility Taps & Standpipes,Ablution facility & Pit Privies,C&SW contractor,Planned,I0601,31,B2,0.00368745277105538,1.46183028877963e-07
423,Sandton phase 3 (KwaLinda), ,Mpangele Drive,12,KwaNdengezi,"-29,8417627776637","30,7764084185625",Western,Ablution Facility Taps & Standpipes,Ablution facility & Pit privies,C&SW contractor,Planned,I0178,325,B1,0.0372392876610075,1.61224860568168e-05
424,Klaarwater Camp,Klaarwater Station,Wiltshire Road,63,AMT Industrial,"-29,8602784364542","30,8608795916082",Western,Ablution Facility Taps,Ablution Facility,C&SW contractor,Planned,I0509,234,B2,0.0112881960416549,3.52225347679894e-06
425,Umlazi - K - K7\AA Lusaka,K7\AA Lusaka,Nyathi Road / Vela Avenue,84,Umlazi - K,"-29,9621230655596","30,8441730214429",Southern,Ablution Facility Taps & 1 Standpipe,Ablution Facility,C&SW contractor,Yes,I0273,394,B1,0.0233142664651673,5.18103082645631e-06
426,Umlazi - J - J13,J13,Esipokini Road / Pigogo Road / Zihlahla Road,78,Umlazi - J,"-29,9540538618695","30,8570970196019",Southern,Ablution Facility Taps & 2 Standpipe,Ablution Facility,C&SW contractor,Yes,I0260,263,B1,0.00906333378785512,2.23908508476056e-06
427,Umlazi - K - K1,K1,Griffiths Mxenge Highway / Josiah Dlamini Road / Phumula Rd,84,Umlazi - K,"-29,960192629484","30,8481215934333",Southern,Ablution Facility Taps & 3 Standpipe,Ablution Facility,C&SW contractor,Yes,I0274,89,B1,0.0121693967786354,7.68626183986145e-07
428,Umlazi - K - K2,K2,Griffiths Mxenge Highway / Josiah Dlamini Road / Mabele Rd,84/78,Umlazi - K,"-29,9613138436083","30,8512497200001",Southern,Ablution Facility Taps & 2 Standpipe,Ablution Facility,C&SW contractor,Yes,I0278,265,B1/A,0.0193078868615011,2.63017910388805e-06
429,Umlazi - K - K15,K15,Griffiths Mxenge Highway,78,Umlazi - K,"-29,96111525477","30,8535975565001",Southern,Ablution Facility Taps & 3 Standpipe,Ablution Facility,C&SW contractor,Yes,I0276,100,B1,0.00842889571121169,1.04693037047833e-06
430,Umlazi - J - J17,J17,Mbalane Road,78,Umlazi - J,"-29,9399326361594","30,8605399312268",Southern,Ablution Facility Taps & 1 Standpipe,Ablution Facility,C&SW contractor,Yes,I0262,137,B1,0.0130137204914276,1.36423293971873e-06
431,Umlazi - J - J7,J7,Bhasini Road,78,Umlazi - J,"-29,9461795186523","30,862726504996",Southern,Ablution Facility Taps & 2 Standpipe,Ablution Facility,C&SW contractor,Yes,I0265,131,B1,0.00640200189578676,1.30713510754361e-06
432,Umlazi - J - JX5,JX5,Zihlahla Road / Bhasini Road,78,Umlazi - J,"-29,9466638068458","30,8613455462502",Southern,Ablution Facility Taps & 5 Standpipe,Ablution Facility,C&SW contractor,Yes,I0269,82,B1,0.00710994644121292,7.01373320652737e-07
433,Umlazi - J - J4,J4,Isidingo Road / Bekezela Avenue / Isiding Road,83,Umlazi - J,"-29,9512855031115","30,86099881575",Southern,Ablution Facility Taps & 4 Standpipe,Ablution Facility,C&SW contractor,Yes,I0264,833,B1,0.027136894872793,6.93036023375388e-06
434,Umlazi - J - JX4,JX4,Zihlahla Road,78,Umlazi - J,"-29,9527634498215","30,8591902472501",Southern,Ablution Facility Taps & 4 Standpipe,Ablution Facility,C&SW contractor,Yes,I0268,150,B1,0.00764234643593857,1.13497349159119e-06
435,Umlazi - K - K1-3D,K1-3D,Thendele Avenue / Phumula Road,84,Umlazi - K,"-29,96188822074","30,8463953795001",Southern,Ablution Facility Taps,Ablution facility & Pit privies,C&SW contractor,Yes,I0275,25,B1,0.00331706067873144,1.80536890207648e-07
436,Umlazi - K - K5,K5,Mabele Road,84,Umlazi - K,"-29,9656640017809","30,8506861787433",Southern,Ablution Facility Taps,Ablution Facility & Pit Privies,C&SW contractor,Planned,I0280,16,B1,0.00243191676434671,6.73626620151752e-08
437,Stockville Settlement, ,Stockville Road / Lehri Road,10,Stockville,"-29,8032713696455","30,8048108103981",Western,Ablution Facility Taps,Ablution Facility,C&SW contractor,Planned,I0194,461,B2,0.0530482791231185,2.20649049371636e-05
438,KwaDlwembe, ,Dlwembe Road,7,Ntshongweni,"-29,8297236570897","30,6774358703996",Western,Ground water tank,Pit Privies,C&SW contractor,Yes,I0103,321,B1,0.0969513610810756,5.29636845823315e-05
439,KwaMbiza, ,D997,7,Ntshongweni,"-29,8539543920331","30,6854501722735",Western,Ground water tank,Pit Privies,C&SW contractor,Yes,I0108,1914,B1,0.0728624733830714,0.000136341289452309
440,Ekwandeni, ,Sibisi Road,6/7/91,Mandlakazi & Mpumalanga East,"-29,8428905289626","30,6511978935002",Western,Ablution Facility Taps,Ablution facility & Pit Privies,C&SW contractor,Yes_35 units planned,I0057,1944,B1,0.107757171111677,0.000183897066066834
441,Luthuli Area, ,ZD615 Road,7,Ntshongweni,"-29,8383130168733","30,6653788915002",Western,Ground water tank,Pit Privies,C&SW contractor,Yes,I0117,652,B1,0.0619289062312991,3.0978267890133e-05
442,Wathanga, ,D210 / ZD615 Road,7,Ntshongweni,"-29,8410180202961","30,6879059650001",Western,Ground water tank,Pit Privies,C&SW contractor,Yes,I0366,2353,B1,0.210592131419882,0.000146079941090791
443,Seventeen, ,ZD615 Road,7,Ntshongweni / Mandlakazi,"-29,8506632477076","30,6772938730001",Western,Ground water tank,Pit Privies,C&SW contractor,Yes,I0182,1636,B1,0.0939351119998028,0.000159190190832531
444,Esikhelekehleni 1, ,D1004,4,Esikhelekehleni,"-29,7216168520672","30,6804245668731",Western,Standpipes,Pit Privies,C&SW contractor,Yes,I0068,3677,B1,0.183877281386888,0.000611729948930334
445,Sthumba, ,D1004,1/4,Sithumba,"-29,682645355774","30,6988645845651",Western,Ablution Facility Taps & Standpipes,Ablution Facility,C&SW contractor,Yes,I0193,1725,B1,0.0963628976929704,0.000194686723668465
446,Rietvallei, ,65001 Street / 65026 Street,4,Fredville / Harrison,"-29,7101731787817","30,654072007549",Western,Ablution Facility Taps & Standpipes,Ablution facility & Pit Privies,C&SW contractor,Yes,I0174,1329,B1,0.0657332510945168,7.05676294806319e-05
447,Sankotshe, ,MR430 / Meyiwa Main Road,5,Sankotshe / Georgedale,"-29,7970436625462","30,5880846292502",Western,Ablution Facility Taps & Standpipes,Ablution Facility,C&SW contractor,Yes,I0180,4058,B1,0.108169141175614,0.000346474172039013
448,Georgedale, ,Mthoko Mkhize Road,5,Georgedale / Camperdown Rural,"-29,7943965115998","30,6120064408854",Western,Ablution Facility Taps & Standpipes,Ablution Facility & Pit Privies,C&SW contractor,Yes,I0078,4581,B1,0.103334775329938,0.000226306985362753
449,Mophela, ,MR430,5,Mophela,"-29,8203682541065","30,5856855380655",Western,Standpipes,Pit Privies,C&SW contractor,Yes,I0134,3323,B1,0.13071460864519,0.00041048564473459
450,Bucks Farm (Riverdale), ,Cliffdale Road,103,Bux Farm,"-29,8111908745956","30,6920412630643",Western,Communal Tanks,Pit Privies,C&SW contractor,TBC,I0027,1207,B1,0.0555876313075146,9.29490529560266e-05
451,Cliffdale Highway (Kwa Douglas),Cliffdale Douglas Station,Capital Hill Drive,103,Cliffdale,"-29,7734959080663","30,6888841107059",Western,Standpipes,Pit Privies,C&SW contractor,TBC,I0034,178,B1,0.0108075370484942,4.81030882757563e-06
452,Lubex Road/Ezitendeni, ,Lubex Road,7/97,Mpumalanga-East,"-29,8091714159312","30,6598890507234",Western,Standpipes,Pit Privies,C&SW contractor,Yes,I0115,1049,B1,0.0656540344166194,3.62873582696455e-05
453,Kontinga,Salem phase 1,MR46,7,Salem Community,"-29,850535462009","30,7410442736149",Western,Standpipes,Pit Privies,C&SW contractor,Yes,I0098,570,B1,0.0428785188674011,4.1776896236133e-05
454,Esivivaneni, ,ZD615 Road,7,Mpumalanga-East / Ntshongweni / Mandlakazi,"-29,8348830386413","30,661733569022",Western,Ground water tank,Pit Privies,C&SW contractor,Yes,I0070,84,B1,0.0431284366113297,6.1485992986813e-06
455,Welbedacht East, ,Welbedacht Road,77/72,Welbedacht,"-29,91507952174","30,855448547306",Southern,8 Standpipe,Ablution facilities & Pit Privies,C&SW contractor,Planned,I0367,1177,B1,0.0633548119011934,3.88683895117242e-05
456,Rockdale (Ndengezi Informal), ,Ndonsa Road/ Makhathini Drive,12,KwaNdengezi,"-29,8523313233337","30,7634419455543",Western,Ablution Facility Taps & Standpipes,Ablution facility & Pit privies,C&SW contractor,Yes,I0176,1264,B1,0.0751704131870534,5.12512829299598e-05
457,Pumphouse, ,Higginson Highway,72,Welbedacht,"-29,9007603066412","30,8542312502545",Southern,Ablution Facility Taps & Standpipes,Ablution Facility & Pit Privies,C&SW contractor,Yes,I0162,379,B1,0.0219361716307176,5.41023057932637e-06
458,Umlazi - BB - BB 868,BB 868,Maphitha Close,84,Umlazi - BB,"-29,9762521467305","30,8507332625393",Southern,TBC,Pit Privies,C&SW contractor,Yes,I0220,233,B1,0.0216311000947648,6.20269734449211e-06
459,St Wendolins Ridge, ,St. Wendolins Road,16/17,St Wendolins,"-29,8727879085494","30,840261817854",Western,Ablution Facility Taps & Individual connections,Ablution Facility,C&SW contractor,Yes,I0192,807,B1,0.0486626578833009,2.56678688035522e-05
460,Motala heights 2, ,Motala Road,15,Motala Heights,"-29,8111430762898","30,831363149008",Western,Ablution Facility Taps,Ablution Facilty,C&SW contractor,Yes,I0136,40,B1,0.00745685810027835,1.83003087526912e-06
461,Burlington station Overspill, ,Street No. 38203,65,Burlington,"-29,8866121569852","30,8955389047488",Western,Ablution Facility Taps,Ablution Facilty,C&SW contractor,Yes,I0834,143,B2,0.00747111408939932,6.34609299266529e-07
462,Burlington Station/ White City, ,Burlington Road,65,Burlington,"-29,8870014999538","30,9008874705001",Western,Ablution Facility Taps,Ablution Facility,C&SW contractor,Yes,I0837,212,B2,0.0150163663109844,8.74423758263838e-07
463,Emalangeni, ,Sibisi Road,7/91/6,Mpumalanga East / Mandlakazi,"-29,830239429344","30,660689985552",Western,Ablution Facility Taps and Ground water tank,Ablution Facility,C&SW contractor,Yes,I0059,1398,B1,0.0596977977896032,5.50520264511881e-05
464,Eqgumeni, ,Sibisi Road/ 645 Street,91,Mpumalanga-East,"-29,8148969876358","30,6499030236746",Western,Standpipes,Pit Latrine,C&SW contractor,Planned,I0067,207,B1,0.0171001811123598,8.40444235380956e-06
465,Madiba (Bottlebrush), ,Shallcross Road / Lichen Road / Papaver Place,71,Bottlebrush / Shallcross / Crossmoor / Woodhurst,"-29,8992772619349","30,8732928477715",Southern,"Ablution Facility Taps, Standpipes & Low pressure tanks",Ablution Facility,C&SW contractor,Yes,I0118,1915,B1,0.0336205817594578,1.81976946369794e-05
466,Madiba (Bottlebrush) Overspill, ,Shallcross Road / Lichen Road / Papaver Place,71,Bottlebrush / Shallcross / Crossmoor / Woodhurst,"-29,9041164064984","30,8811340792501",Southern,"Ablution Facility taps, Standpipes & Low pressure tanks",Ablution Facility,C&SW contractor,Planned,I0852,3996,C,0.0714057985632601,2.73737270314196e-05
467,Umlazi - J - JX3 / JX7,JX3 / JX7,Dloko Road / Mbalane Road / Esipokini Road,78,Umlazi - J,"-29,9456474145878","30,85911487",Southern,Ablution Facility Taps & 2 Standpipe,Ablution Facility,C&SW contractor,Yes,I0267,199,A,0.0210939259331921,3.01902300624689e-06
468,Intake Rd, ,Intake Road,72/100/13,Demat,"-29,8946972920835","30,8094118733671",Western,TBC,TBC,C&SW contractor,Yes,I0089,2085,B1,0.0536738111212886,5.984727219848e-05
469,Mpumulanga (substation), ,Mthoko Mkhize Dr,4,Hammarsdale - Sterkspruit,"-29,7955304424302","30,6514965915303",Western,Standpipe,Pit Privies,C&SW contractor,TBC,I0892,55,B2,0.0114517813389417,2.72968173894739e-06
470,Motala farm 2, ,Allagappa Road,15,Motola Heights,"-29,8076253147482","30,8277219294583",Western,TBC,TBC,C&SW contractor,TBC,I0903,80,B2,0.0103698378591868,2.55667594671833e-06
471,Dassenhoek 5, ,Thornwood Road,13,Madiba Valley,"-29,8649464691617","30,8091609255641",Western,TBC,TBC,C&SW contractor,TBC,I0906,84,B1,0.0155364355172054,2.45648038924846e-06
472,Damede 3, ,Higginson Highway,17,Savannah Park,"-30,1923482422831","30,7448628250001",Western,Standpipe,VIP Toilets,C&SW contractor,TBC,I0909,46,B2,0.00362063626728762,3.45381822258543e-07
473,Ekuthuleni (Naicker Road), ,Track 38223 / Hans Dettman Highway,17,St Wendolins,"-29,8690791796952","30,8737758775817",Western,Ablution Facility Taps,Ablution facility & Pit Privies,C&SW contractor,Yes,I0599,43,B2,0.0046276604667864,3.26033967679733e-07
474,Phase 5, ,Hansdettman Highway,63,AMT Industrial,"-29,8656924628438","30,8720203654179",Western,Ablution Facility Taps,Ablution Facility & Pit Privies,C&SW contractor,Planned,I0593,176,C,0.0145293971746377,2.81536924459684e-06
475,Katshi, ,Demat Road / Intake Road,72,Demat,"-29,9042001539678","30,8207302900001",Western,Standpipes,Pit Privies,C&SW contractor,Yes,I0096,1563,B1,0.11549800375119,8.42313594367202e-05
476,Demat (Damede),Damede,Demat Road,72,Demat,"-29,8955235269443","30,8369373925001",Western,Standpipes,Pit Privies,C&SW contractor,Yes,I0049,2583,B1,0.0698616206929117,7.78377480793587e-05
477,Progress Place (1 of 3),Bottlebrush,Demat Road / 200382 Street,72,Demat,"-29,9026105096045","30,8352867394588",Western,Standpipes,Pit Privies,C&SW contractor,Yes,I0159,1951,B1,0.0578510740923288,4.68212215593025e-05
478,Progress Place (3 of 3),Bottlebrush,Demat Road / 200382 Street,72,Demat,"-29,9026105096045","30,8352867394588",Western,Standpipes,Pit Privies,C&SW contractor,Yes,I0159,552,B1,0.0118778096050895,3.40559616966821e-06
479,Progress Place (2 of 3),Bottlebrush,Demat Road / 200382 Street,72,Demat,"-29,9026105096045","30,8352867394588",Western,Standpipes,Pit Privies,C&SW contractor,Yes,I0159,1008,B1,0.0350663194925485,1.49285852631412e-05
480,Progress Place Ext, ,Demat,72,Demat,"-29,9043906584673","30,8430421349548",Western,TBC,TBC,C&SW contractor,TBC,I0160,905,B1,0.0362498490218869,2.21505563308094e-05
481,Lusaka Training College,Tanzania / Traning College,Rainbow Circle / Moorton Drive / Silvermount Circle,72,Welbedacht,"-29,9071419005948","30,8536919892501",Southern,Ablution Facility Taps & Standpipes,Ablution facility & Pit Privies,C&SW contractor,Yes,I0800,1031,B2,0.037304528069538,7.9166174846835e-06
482,Damede 2 (2 of 3),KwamaDlamini,200267 Street / Higginson Highway,17,Savannah Park,"-29,8970011086046","30,8533813775002",Western,Standpipe,TBC,C&SW contractor,Planned,I0040,60,B1,0.00351615309114213,4.52054226593556e-07
483,Higginson Highway, ,Higginson Highway,72,Welbedacht,"-29,9028425148443","30,8548396887066",Southern,Ablution Facility Taps,Ablution Facility,C&SW contractor,Yes,I0087,351,B1,0.0122387814560813,4.3830256467859e-06
484,R.K Khan, ,101 R K Khan,73,Croftdene,"-29,9131449082946","30,8876979480286",Southern,TBC,TBC,C&SW contractor,TBC,I0577,15,B2,0.00123107981423915,5.46676029275052e-08
485,Crossmoor Road, ,Crossmoor Road,71,Chatsworth,"-29,8964516258765","30,8661680532501",Southern,Ablution Facility Taps & Standpipes,Ablution Facility,C&SW contractor,Yes,I0038,266,B1,0.010851026055182,2.60141995580666e-06
486,Umlazi - J - J16,J16,Bhasini Road / King Dingane Road,78,Umlazi - J,"-29,9480119568507","30,8642607897962",Southern,5 Standpipe,VIPs,C&SW contractor,Yes,I0261,138,A,0.0145387822393263,1.34879380199009e-06
487,Umlazi - CC - CC Esidweni,CC (Esidweni),South Spinal Road,84/74,Umlazi - CC / Umlazi - K Ext / Umlazi - AA / Umlazi - BB,"-29,971938065816","30,8335178497501",Southern,Standpipes,Pit Privies,C&SW contractor,Yes,I0224,3412,B1,0.113067773013707,0.00012370458203316
488,Umlazi - H - HX5,HX5,Lucky Street,79,Umlazi - H,"-29,9458253453744","30,8680396425001",Southern,TBC,VIPs,C&SW contractor,Yes,I0255,115,A,0.0108882699221764,7.8735797596568e-07
489,Zion, ,Shallcross Road,70/71,Shallcross,"-29,9015023230496","30,883162896588",Western,TBC,TBC,C&SW contractor,Planned,I0589,48,C,0.00459983827415151,5.14966672484173e-07
490,Ekuthuleni (Shallcross), ,Chiltern Road,63,Shallcross,"-29,8797131981997","30,8783959697438",Western,Ablution Facility Taps & Standpipes,Ablution Facility,C&SW contractor,Yes,I0590,187,B2,0.0143170606002548,4.03723961101141e-06
491,Ethembeni, ,Rameshvar Drive / Onyx Place,63,Shallcross,"-29,8832443381662","30,8851893542501",Western,Standpipes,Ablution facility & Pit privies,C&SW contractor,Yes,I0591,41,B2,0.00794074059309063,9.67535131879228e-07
492,Ratna/kwaBridge, ,Burlington Road,65,Burlington,"-29,8957242177228","30,8890298080001",Western,TBC,TBC,C&SW contractor,Planned,I0592,167,B2,0.00812961110154809,2.10129177219949e-06
493,Dassenhoek - Block C, ,District Road,14/12,Dassenhoek,"-29,8494695068326","30,7869518601253",Western,Standpipes,TBC,C&SW contractor,Yes,I0044,1445,B1,0.0539658775969055,0.000120431281958093
494,Dassenhoek - Block D, ,Milky Way,14,Thornwood / Tshelimnyama-Mpola / Dassenhoek,"-29,8525485228691","30,7992000907649",Western,Ablution Facility Taps & Standpipes,Ablution Facility,C&SW contractor,Yes,I0045,1380,B1,0.0427375639700164,7.84129581912477e-05
495,Emmaus, ,Emmaus Road,15,Westmead,"-29,8215403989432","30,8254622313922",Western,Nearby houses,Pit Privies,C&SW contractor,Yes,I0064,476,B1,0.0457539797147057,6.38169213753569e-06
496,Sagu (Sandton phase 3),Sandton phase 3,MR 518 Route / Mpangele Drive,12,KwaNdengezi,"-29,8522052080304","30,7763104735001",Western,Ablution Facility Taps & Standpipes,Ablution Facility,C&SW contractor,Yes,I0177,958,B1,0.07261984185934,4.6733011118169e-05
497,Sandton phase 3 (Rockdale ), ,A Luthuli Crescent,12,KwaNdengezi,"-29,8692218004787","30,7620360615001",Western,Ablution Facility Taps & Standpipes,Ablution facility & Pit privies,C&SW contractor,Yes,I0179,128,B1,0.0158266417008828,4.34954633470523e-06
498,Marianridge Station, ,Old Richmond Road,17,Intake,"-29,8692570485799","30,8283534535001",Western,Ablution Facility Taps & Standpipes,Ablution Facility,C&SW contractor,Yes,I0605,242,B2,0.0183201328596509,2.98693226664454e-06
499,Mngcweni,Rietvallei Phase 1B,Track 65311,4/1,Mngcweni / Harrison,"-29,7103712664814","30,6468163550001",Western,Ablution Facility Taps & Standpipes,Ablution Facility,C&SW contractor,Planned,I0132,932,B1,0.109231902601331,0.000100231140172362
500,Woodyglen,Zamani Phase 1B,Saganga  Highway,6,Mpumalanga-East,"-29,8360608600826","30,6235687920002",Western,Ablution Facility Taps & Standpipes,Ablution Facility,C&SW contractor,Yes,I0371,370,B1,0.0462868989256204,1.40459118782453e-05
501,Cliffdale School Station, ,62025 Street,103,Cliffdale,"-29,788911578272","30,6870496171725",Western,Standpipes,Pit Privies,C&SW contractor,TBC,I0035,2375,B1,0.07686671055871,0.000179949529370335
502,Panekeni, ,Layby Road,4,Fredville / Esikhelekehleni,"-29,6991399943364","30,6744563388339",Western,Standpipes,Pit Privies,C&SW contractor,Yes,I0155,1279,B1,0.0360948139291588,5.82123237183948e-05
503,Madwaleni, ,Layby Road,4,Fredville,"-29,700264038651","30,667531360754",Western,Standpipes,Pit Privies,C&SW contractor,Yes,I0120,610,B1,0.0321909710321852,5.52867300952485e-05
504,Diphini, ,Old Main Road,4,Fredville,"-29,7057823951485","30,6727116753402",Western,Standpipes,Pit Privies,C&SW contractor,Yes,I0050,936,B1,0.0334456315935283,3.10740528965699e-05
505,Gasa Section, ,Layby Road,4,Fredville,"-29,70724973992","30,6629710140537",Western,Ablution Facility Taps & Standpipes,Ablution Facility,C&SW contractor,Yes,I0076,642,B1,0.0474601490742447,4.13013103856744e-05
506,Mpuma, ,Layby Road,4,Fredville / Sithumba,"-29,690837952456","30,6792151679327",Western,Standpipes,Pit Privies,C&SW contractor,Yes,I0139,2307,B1,0.0783300038914179,0.000196929487988462
507,Meyiwa Main, ,Meyiwa Main Rd,91,Mpumlanga-West,"-29,8120935545846","30,6048931725001",Western,Ablution Facility Taps,Ablution facility & Pit privies,C&SW contractor,Yes,I0128,104,B1,0.024550513338947,3.62178550750981e-06
508,Minitown, ,Mthoko Mkhize Road,5/91,Georgedale / Mpumalanga-East,"-29,7978903407607","30,6303605696262",Western,TBC,Pit Privies,C&SW contractor,Yes,I0131,1263,B1,0.057829371726515,5.26532803434292e-05
509,Zibuse,Hammarsdale Extension,400178 Street,4,Hammersdale - Sterkspruit,"-29,7911568847309","30,6311082074365",Western,Standpipes,Pit Privies,C&SW contractor,Planned,I0375,1236,B1,0.0503743680227944,0.000122367666359657
510,Nazareth, ,Dlamini Street,16,Nazareth,"-29,84955830761","30,8494137540001",Western,Ablution Facility Taps,Ablution Facility,C&SW contractor,Yes,I0829,996,B2,0.0697562110191379,4.87600594260473e-05
511,Dassenhoek - Block G, ,Track 75199,12,Dassenhoek Rural,"-29,859643329553","30,7877926076848",Western,Ablution Facility Taps & Standpipes,Ablution Facility,C&SW contractor,Yes,I0047,647,B1,0.0457638754739865,4.18349138270535e-05
512,Bux Farm, ,Cnr Cliffdale Rd and Rd 400521,103,Bux Farm,"-29,7891623933","30,708809705036",Western,TBC,TBC,C&SW contractor,TBC,I0844,217,B2,0.0178134205267065,5.50391460315825e-06
513,Woody Glen Overspill, ,561 Street/Embuthweni Road/Buthelezi Street,6,Mpumalanga-East,"-29,8357739782177","30,6158688280001",Western,TBC,TBC,C&SW contractor,Yes,I0370,680,B1,0.0751290176014825,7.66357269709763e-05
514,A1 Mpumalanga, ,Mofokeng Road,91,Mpumalanga-West,"-29,8073463388157","30,6012426485001",Western,Ablution Facility Taps,Ablution Facility,C&SW contractor,Planned,I0001,152,B2,0.0246663771693595,4.64200278229209e-06
515,Motala heights 1, ,Ridge Road / Motala Street,15,Motala Heights,"-29,8054107470731","30,8330322434949",Western,Ablution Facility Taps & Standpipes,Ablution Facility,C&SW contractor,Yes,I0135,184,B1,0.00906896556574352,1.79194819504535e-06
516,Grassmere Drive, ,Grassmere Dr,13,Nagina,"-29,8829943310776","30,8180940854758",Western,TBC,TBC,C&SW contractor,TBC,I0081,216,B1,0.0123417317696761,4.6149292705199e-06
517,Ekukhanyeni,Tshelimnyama phase 4 Ext,MR 559 / 47700 STR,15,Tollgate,"-29,8322476941156","30,7891861119152",Western,TBC,TBC,C&SW contractor,TBC,I0202,2031,B2,0.0534568737940718,8.56287918575827e-05
518,KwaCele / Ethembeni,Fredville Phase 2 Ext,65006 Street,4,Fredville,"-29,7213549733908","30,6529327875001",Western,Standpipes,Pit Privies,C&SW contractor,Yes,I0099,74,B1,0.0143879244732955,2.37812360845409e-06
519,Mpola Phase 3 Ext,Mpola Phase 3,Milky Way,14,Thornwood & Tshelimnyama-Mpola,"-29,8581792592781","30,8186083532895",Western,Standpipes,Pit Privies& water borne sew,C&SW contractor,Yes,I0138,586,B1,0.0334117342567148,1.80794960818912e-05
520,Marianridge-Mpola Ext,Marianridge,Central Drive,14/13,Tshelimnyama-Mpola / Marianridge,"-29,8578216378408","30,8240324034879",Western,TBC,TBC,C&SW contractor,TBC,I0888,1284,B2,0.0341803042165492,2.41100437516788e-05
521,Umlazi - K - KX13,KX13,Josiah Dlamini Road / Mpevu Road,84,Umlazi - K,"-29,9661188863743","30,8486079916946",Southern,Standpipes,VIPs,C&SW contractor,Yes,I0283,13,A,0.00253611241579728,9.72730809287212e-08
522,Umlazi - H - HX8,HX8,Zihlahla Road / Nyamazane Street,78,Umlazi - H / Umlazi - J,"-29,9469257263048","30,8653617635851",Southern,TBC,VIPs,C&SW contractor,Yes,I0257,153,A,0.0153391131137597,1.34365570759631e-06
523,Umlazi - J - JX6,JX6,Zihlahla Road,78,Umlazi - J,"-29,9464488268076","30,8602191641673",Southern,4 Standpipe,VIPs,C&SW contractor,Yes,I0270,26,A,0.00312877322650913,1.57734517392701e-07
524,Damede 2 (1 of 3), ,Nhliziyo Place,72,Demat / Welbedacht / Savannah Park,"-29,8982297847562","30,8531105112501",Western,TBC,TBC,C&SW contractor,TBC,I0914,14,B1/B2,0.00407754228777806,1.56717359646945e-07
525,Asinamali / Toni (St.Wendolins),Santi (Phase 4),Wiltshire Road,63/16,AMT Industrial / Southmead,"-29,8628663755533","30,854135152",Western,Ablution Facility Taps & Standpipes,Ablution facility & Pit Privies,C&SW contractor,Yes,I0018,471,B1,0.0317938576391468,8.43932255679727e-06
526,Dassenhoek 3, ,Thornwood Road,13,Madiba Valley,"-29,86195907268","30,8106355230001",Western,TBC,TBC,C&SW contractor,TBC,I0905,67,B1,0.0117063561479571,2.37684325016351e-06
527,Lower Thornwood, ,Thornwood Road / Greyvillea Road / Solandra Crescent,13/14,Madiba Valley,"-29,8675387239345","30,8072686926571",Western,"Ablution facility Taps, Standpipes & Individual connections",Ablution Facility,C&SW contractor,Yes,I0114,363,B1,0.0460682681581227,8.87052548441189e-06
528,Madiba Valley, ,50416 Street,14,Madiba Valley,"-29,8615336840493","30,8006508240001",Western,Ablution Facility taps & Individual connections,Ablution Facility & VIPs,C&SW contractor,Yes,I0119,395,B1,0.019704639111181,6.83993712695105e-06
529,Umlazi - H - H14,H14,Alison Street / Isandlwana Street,79,Umlazi - H,"-29,9406369310121","30,8679752991109",Southern,TBC,VIPs,C&SW contractor,Yes,I0251,264,A,0.037420285484942,3.07086728092432e-06
530,Mabhida,Stop Mabhida,Mazenze Str / Zwelabo Cres,13,Luganda,"-29,8816400923884","30,8036644107841",Western,NO,TBC,C&SW contractor,Planned,I0864,57,B2,0.0165516286584345,1.84271526673872e-06
531,Engojeni Ka Santi, ,Gravel Road 50395,16,Southmead,"-29,8653715541824","30,8491920830002",Western,Standpipe,TBC,C&SW contractor,Yes_under Construction,I0065,27,B1,0.00848931344087807,5.49453029840164e-07
532,Dassenhoek - Block B (Mocambique),Mocambique,MR559 Route,14/15,Dassenhoek,"-29,8428245206422","30,7917009076245",Western,Standpipes,Pit Privies,C&SW contractor,Yes,I0043,1384,B1,0.0895237988003522,7.10522188344221e-05
533,Ezibovini/Zone 4,Zamani,414 Street/Ximba Road,6,Mpumalanga-East,"-29,8325018179643","30,6331079683816",Western,TBC,TBC,C&SW contractor,TBC,I0073,183,B1,0.0360845281177499,6.50925705849515e-06
534,Harare 1, ,Layby Road,4,Fredville,"-29,706757406429","30,6684615879813",Western,Standpipes,Pit Privies,C&SW contractor,Yes,I0085,311,B1,0.0365848732845324,1.02374990479224e-05
535,Zamani 2, ,Gwacela Road / Dlamini Road,6,Mpumalanga-East,"-29,8218712652494","30,6402100574481",Western,Ablution Facility Taps & Standpipes,Ablution Facility,C&SW contractor,Yes,I0372,193,B1,0.0439587774828881,1.37635244882755e-05
536,Zamani 2A, ,Sibisi Road / Dimba Road,6/91,Mpumalanga-East,"-29,820699881087","30,6485582060001",Western,Ablution Facility Taps and Ground water tank,Ablution Facility,C&SW contractor,Yes,I0373,684,B1,0.134514184292904,4.57878478069077e-05
537,KwaCutshwayo (Coffee-Farm phase 2) Ext,Sandton Phase 2,MR518,12,KwaNdengezi,"-29,8573594296265","30,7823752510001",Western,Ablution Facility Taps & Standpipes,Ablution Facility,C&SW contractor,Planned,I0100,938,B1,0.142340472606949,6.25558819462678e-05
538,Demat, ,Demat Road,72,Demat,"-29,8984946451031","30,845419640171",Western,TBC,TBC,C&SW contractor,Yes,I0048,603,B1,0.0584080454400235,1.80198265142805e-05
539,Tshelimnyama phase 3 Overspill, ,Umhlathuzana Road,15,Tshelimnyama-Mpola,"-29,8351123006763","30,799816429",Western,Individual connections,Water borne sewer,C&SW contractor,Yes,I0201,800,B1,0.0664231906508912,1.84258508250813e-05
540,Gede Section,Salem phase 1,A3768 Road,7,Salem Community,"-29,8459203482417","30,7349700703753",Western,Standpipes,Pit Privies,C&SW contractor,Yes,I0077,394,B1,0.0518106173492631,3.03113147575658e-05
541,Mpola Phase 2 Ext,Mpola Phase 2,200213 Street / 201191 Street,15,Tshelimnyama-Mpola,"-29,8474882764602","30,8124599007501",Western,Ablution Facility Taps & Standpipes,Ablution facility & Pit Privies,C&SW contractor,Yes,I0137,976,B1,0.142303780015832,3.07219185210572e-05
542,Esikhelekehleni 2, ,D1004,4,Sithumba,"-29,7079552887399","30,6935560562501",Western,Standpipes,Pit Privies,C&SW contractor,Yes,I0069,297,B1,0.050598579564602,2.93505781766023e-05
543,Emangabazini / KaGogodwayo,Salem phase 2,MR461,7,Salem Community,"-29,856481254944","30,7416727728627",Western,Standpipes,Pit Privies,C&SW contractor,Yes,I0060,1311,B1,0.0429889281702387,4.97365748587391e-05
544,Ezakhiweni / Wawa, ,MR461,7,Salem Community,"-29,8586761386229","30,7371831049946",Western,Standpipes,Pit Privies,C&SW contractor,Yes,I0071,746,B1,0.0457224625958071,3.95659970951087e-05
545,Ezibomvini, ,ZD615 Road,7,Mandlakazi / Ntshongweni,"-29,8481222180422","30,66572875525",Western,Ground water tank,Pit Privies,C&SW contractor,Yes,I0072,285,B1,0.0715130354907182,5.19729947671258e-05
546,Dassenhoek - Block F, ,Bhekisizwe Road,14/12,Dassenhoek,"-29,8564366372406","30,7929381294639",Western,Ablution Facility Taps & Standpipes,Ablution Facility,C&SW contractor,Yes,I0046,882,B1,0.0630551244878476,4.54618497343372e-05
547,Umlazi - K - KX10,KX10,Griffiths Mxenge Highway / Mayibuye Road,78,Umlazi - K,"-29,9611892290151","30,8558038907084",Southern,Ablution Facility Taps,Ablution Facility,C&SW contractor,Planned,I0282,246,B1,0.0069468712765827,1.60632199679592e-06
548,Cato Crest Overspill, ,Vusi Mzimela Road,30/101,Cato Crest / Cato Crest - Open Space,"-29,8527402226135","30,981216935",Southern,"Ablution Facility Taps, Standpipes & Ground water tank",Ablution facility & Pit Privies,C&SW contractor,TBC,I0032,247,B1,0.0194035875687094,3.31845204318126e-06
549,Umlazi - H - HX6 A & B,HX6 A & B,Isandlwana Street / Zihlahla Road,79,Umlazi - H,"-29,9396973221411","30,8685612958235",Southern,Ablution Facility Taps,Ablution Facility,C&SW contractor,Yes,I0256,504,A,0.0495430708695346,4.16503412964568e-06
550,AMT Industrial, ,Mkhize Road / unnamed gravel road,16,AMT Industrial,"-29,8595458549956","30,8552145774887",Western,TBC,Pit Privies,C&SW contractor,TBC,I0017,93,B1,0.0223090675805011,2.70873100740166e-06
551,Luganda Ext., ,Luganda Road,13,Nagina,"-29,886433583772","30,8092501117935",Western,Standpipes,Pit Privies,C&SW contractor,Not electrified,I0925,40, ,0.0113342631461665,5.28483964838884e-06
552,Ebuhleni,special settlement,Matebetulu Road, 3,Matabetule,"-29,7069758982887","30,8860257943869",Western,Standpipes,"Pit Privies, VIP, Flush toilets",C&SW contractor,Not Electrified,I0924,10011,B1,0.0462469272390739,0.000100872322245917
553,Pilgrims x, ,Nogin Road / Orient Road,90,Isipingo,"-29,9717860459022","30,9321505655234",Southern,Ablution Facility Taps,Ablutiion Facility,C&SW contractor,Yes,I0158,450,B1,0.00685255698991084,2.2265137892314e-06
554,Dilkoosh Road, ,65 Dilkoosh Road,65,Northdene,"-29,8625286759651","30,8930146321048",Western,TBC,TBC,C&SW contractor,TBC,I0926,4, ,0.000847573936574844,3.51580005248776e-08
555,Riddles Road, ,1 Radford Gardens,65,Hillary,"-29,8777314564256","30,9319812145729",Western,TBC,TBC,C&SW contractor,TBC,I0927,5, ,0.00113399622243322,3.5840335970509e-08
556,Radford Gardens, ,1 Radford Gardens,65,Hillary,"-29,8784713242699","30,9364309990936",Western,TBC,TBC,C&SW contractor,TBC,I0928,29, ,0.00323341944306981,2.77732990478558e-07
557,Mawelewele overspill, ,Umnyovu Road,72,Demat,"-29,8967089633895","30,8466924927192",Western,TBC,TBC,C&SW contractor,TBC,I0929,72, ,0.00970441739356629,3.30670583542488e-06
558,Isithundu Hill Overspill/Ext., ,Dambuza Rd,13,Sukuma,"-29,8768165870403","30,8014372470001",Western,TBC,TBC,C&SW contractor,TBC,I0090,358,B1,0.0473706394896796,1.02363967310247e-05
559,Lindelani, ,Ntuzuma - Main Road,43/38,Ntuzuma - D-Lindelani,"-29,7336554825059","30,9297101865001",Northern,Ablution Facility Taps & Standpipes,Ablution Facility & Pit Privies,C&SW contractor,Yes,I0113,1222,B1,0.101179792120791,2.34101906480506e-05
560,Cato Crest, ,Vusi Mzimela Road,30/101,Cato Crest / Cato Crest - Open Space,"-29,8502324024984","30,9759999555002",Southern,"Ablution Facility Taps, Standpipes & Ground water tank",Ablution facility & Pit Privies,C&SW contractor,Yes_Investigate  / Prioritise,I0390,2081,B1/B2,0.0859481407083524,2.56596704015604e-05
561,Ekuthuleni 1,Lamontville MEC,Hall/ Kulu / Malinga Roads,75,Lamontville,"-29,9492147943578","30,9420219587552",Southern,Ablution Facility Taps & 3 Standpipe,Ablution Facility,C&SW contractor,Yes,I0055,220,B1,0.0132762110864032,1.60676101750377e-06
562,Mandela Drive, ,Horseshoe Road,32,Clairwood,"-29,9173582920326","30,9855466864038",Southern,TBC,TBC,TBC,TBC,I0930,31, ,0.00139423688691747,9.9066367902026e-08
563,Ezipokini, ,Sirdar road,32,Clairwood,"-29,9114172952167","30,9823241207283",Southern,TBC,TBC,TBC,TBC,I0931,70, ,0.00169339657260081,1.21651939961697e-07
564,Kingrest, ,Lucas Crescent,66,Fynnlands / Grosvenor,"-29,9068386243348","31,0114634124573",Southern,TBC,TBC,TBC,TBC,I0932,10, ,0.00259435558997214,3.1271608195776e-07
565,Duma Mbhele, ,Mbele Street, 69,Lamontville,"-29,9385857741353","30,9381937971102",Southern,TBC,TBC,TBC,TBC,I0933,35, ,0.00337520167521758,4.07767585233763e-07
566,Soweto, ,Thirty Third Avenue / Clermont Road,92,Clermont Emngeni,"-29,7954645668291","30,9075593857641",Western,Ablution Facility Taps & Standpipes,Ablution Facility,C&SW contractor,Yes,I0191,337,B1,0.0187362858910469,3.98985149830465e-06
